{"type": "FeatureCollection", "features": [{"type": "Feature", "properties": {"name": "\u041e\u0441\u0442\u0440\u0456\u0432 \u0422\u0443\u0437\u043b\u0430 /// Occupied Tuzla Island", "date": "2023-04-30"}, "geometry": {"type": "Polygon", "coordinates": [[[36.519242, 45.293988, 0], [36.531774, 45.286199, 0], [36.547052, 45.279677, 0], [36.557012, 45.267052, 0], [36.578294, 45.249048, 0], [36.571599, 45.250076, 0], [36.549112, 45.261314, 0], [36.54585, 45.26808, 0], [36.537782, 45.273999, 0], [36.533319, 45.279798, 0], [36.518298, 45.288856, 0], [36.50714, 45.295558, 0], [36.519242, 45.293988, 0]]]}}, {"type": "Feature", "properties": {"name": "\u041e\u0420\u0414\u041b\u041e /// CADR and CALR", "date": "2023-04-30"}, "geometry": {"type": "Polygon", "coordinates": [[[39.082891, 47.851604, 0], [39.082778, 47.869927, 0], [38.842182, 47.863118, 0], [38.835102, 47.816059, 0], [38.788677, 47.815974, 0], [38.798157, 47.77844, 0], [38.788943, 47.737015, 0], [38.770869, 47.720629, 0], [38.773164, 47.685764, 0], [38.754069, 47.684888, 0], [38.730305, 47.680361, 0], [38.729124, 47.698807, 0], [38.670796, 47.698954, 0], [38.6592, 47.700057, 0], [38.665616, 47.697176, 0], [38.665887, 47.669418, 0], [38.629274, 47.669278, 0], [38.629589, 47.653336, 0], [38.620087, 47.64487, 0], [38.456275, 47.644253, 0], [38.456688, 47.617004, 0], [38.35012, 47.616689, 0], [38.350737, 47.576206, 0], [38.31097, 47.576028, 0], [38.31115, 47.553619, 0], [38.305114, 47.544851, 0], [38.284804, 47.544465, 0], [38.284908, 47.508376, 0], [38.295072, 47.508064, 0], [38.2941, 47.490745, 0], [38.289402, 47.476754, 0], [38.302022, 47.475121, 0], [38.302085, 47.39287, 0], [38.300409, 47.391514, 0], [38.286416, 47.391477, 0], [38.286492, 47.37356, 0], [38.258732, 47.373353, 0], [38.245559, 47.363193, 0], [38.247363, 47.361737, 0], [38.250461, 47.357713, 0], [38.246788, 47.351445, 0], [38.24024, 47.346223, 0], [38.230693, 47.343169, 0], [38.230493, 47.338902, 0], [38.222079, 47.332853, 0], [38.225794, 47.332115, 0], [38.227214, 47.32971, 0], [38.221472, 47.327345, 0], [38.220978, 47.30538, 0], [38.336304, 47.306408, 0], [38.334511, 47.301408, 0], [38.328204, 47.300397, 0], [38.327091, 47.299009, 0], [38.327547, 47.297527, 0], [38.333288, 47.296975, 0], [38.333739, 47.296253, 0], [38.333354, 47.292132, 0], [38.32969, 47.289612, 0], [38.328436, 47.284808, 0], [38.325766, 47.284601, 0], [38.323394, 47.281132, 0], [38.327186, 47.279544, 0], [38.326187, 47.277483, 0], [38.327633, 47.27668, 0], [38.33081, 47.275932, 0], [38.333735, 47.268938, 0], [38.333286, 47.268272, 0], [38.329143, 47.266503, 0], [38.330997, 47.264575, 0], [38.330785, 47.263449, 0], [38.324491, 47.256821, 0], [38.288043, 47.2565, 0], [38.288189, 47.23856, 0], [38.260502, 47.238316, 0], [38.253541, 47.233616, 0], [38.247703, 47.233423, 0], [38.246091, 47.23411, 0], [38.242767, 47.232683, 0], [38.241649, 47.232812, 0], [38.240751, 47.232146, 0], [38.239886, 47.232412, 0], [38.237809, 47.232043, 0], [38.237346, 47.231216, 0], [38.236248, 47.230817, 0], [38.235123, 47.231097, 0], [38.234334, 47.230986, 0], [38.232907, 47.22919, 0], [38.232862, 47.22841, 0], [38.233674, 47.228017, 0], [38.234011, 47.227113, 0], [38.233869, 47.225801, 0], [38.234648, 47.225407, 0], [38.236145, 47.225608, 0], [38.23641, 47.225413, 0], [38.236274, 47.2245, 0], [38.236442, 47.224262, 0], [38.238517, 47.22364, 0], [38.238714, 47.223216, 0], [38.238255, 47.222409, 0], [38.238759, 47.221739, 0], [38.23976, 47.221618, 0], [38.240047, 47.221361, 0], [38.240083, 47.220149, 0], [38.239897, 47.219924, 0], [38.239826, 47.218731, 0], [38.240507, 47.218336, 0], [38.241288, 47.218482, 0], [38.242505, 47.217811, 0], [38.24279, 47.217117, 0], [38.24228, 47.216212, 0], [38.242276, 47.215302, 0], [38.241893, 47.214844, 0], [38.241542, 47.212529, 0], [38.241847, 47.212166, 0], [38.241222, 47.211753, 0], [38.240825, 47.210855, 0], [38.241152, 47.210543, 0], [38.241055, 47.210114, 0], [38.239657, 47.208713, 0], [38.237378, 47.208391, 0], [38.234781, 47.202589, 0], [38.23559, 47.196129, 0], [38.236312, 47.139527, 0], [38.234068, 47.135546, 0], [38.231909, 47.129692, 0], [38.229247, 47.127085, 0], [38.228451, 47.122673, 0], [38.230118, 47.119406, 0], [38.211502, 47.107183, 0], [38.186556, 47.093712, 0], [38.163265, 47.065455, 0], [38.084988, 47.020418, 0], [38.080408, 47.026545, 0], [38.106046, 47.047179, 0], [38.131796, 47.053729, 0], [38.132826, 47.06402, 0], [38.122869, 47.080622, 0], [38.104662, 47.095627, 0], [38.08885, 47.105956, 0], [38.062671, 47.110804, 0], [38.054332, 47.108302, 0], [38.040785, 47.096257, 0], [38.040012, 47.091875, 0], [38.032545, 47.08907, 0], [37.993063, 47.099003, 0], [37.975882, 47.095683, 0], [37.979072, 47.09281, 0], [37.99023, 47.091466, 0], [37.983964, 47.083576, 0], [37.895473, 47.110921, 0], [37.87958, 47.106667, 0], [37.862171, 47.106248, 0], [37.83831, 47.099704, 0], [37.829283, 47.112742, 0], [37.818054, 47.119099, 0], [37.849982, 47.174205, 0], [37.851356, 47.198938, 0], [37.833503, 47.249301, 0], [37.833846, 47.285412, 0], [37.827666, 47.302643, 0], [37.834876, 47.30823, 0], [37.831786, 47.314981, 0], [37.824577, 47.321498, 0], [37.827323, 47.328479, 0], [37.829283, 47.342507, 0], [37.844489, 47.341974, 0], [37.856849, 47.343603, 0], [37.861212, 47.347858, 0], [37.859152, 47.354371, 0], [37.848609, 47.350116, 0], [37.837623, 47.352442, 0], [37.841743, 47.358489, 0], [37.851599, 47.365534, 0], [37.841643, 47.369022, 0], [37.83831, 47.378022, 0], [37.850326, 47.384298, 0], [37.856849, 47.392898, 0], [37.855819, 47.403124, 0], [37.863715, 47.426588, 0], [37.878478, 47.441684, 0], [37.892555, 47.469773, 0], [37.819427, 47.546303, 0], [37.782348, 47.585916, 0], [37.768615, 47.635448, 0], [37.801917, 47.642388, 0], [37.803977, 47.660196, 0], [37.764495, 47.684702, 0], [37.67268, 47.724717, 0], [37.637589, 47.751994, 0], [37.623169, 47.77311, 0], [37.634549, 47.802538, 0], [37.634262, 47.838423, 0], [37.644034, 47.886626, 0], [37.575907, 47.907733, 0], [37.5686, 47.907768, 0], [37.535029, 47.917986, 0], [37.539407, 47.924236, 0], [37.542839, 47.932477, 0], [37.52859, 47.941498, 0], [37.521854, 47.94582, 0], [37.525158, 47.957202, 0], [37.532003, 47.964588, 0], [37.539487, 47.972632, 0], [37.548482, 47.979262, 0], [37.558546, 47.986451, 0], [37.549621, 47.997364, 0], [37.556143, 48.009855, 0], [37.573394, 48.006899, 0], [37.575455, 48.013961, 0], [37.588566, 48.016021, 0], [37.601376, 48.016946, 0], [37.616482, 48.018095, 0], [37.622662, 48.019444, 0], [37.64781, 48.028944, 0], [37.669986, 48.043363, 0], [37.68785, 48.054754, 0], [37.691199, 48.053406, 0], [37.694294, 48.056545, 0], [37.687749, 48.061894, 0], [37.693049, 48.069307, 0], [37.699702, 48.072204, 0], [37.742788, 48.072751, 0], [37.746306, 48.073475, 0], [37.756436, 48.08667, 0], [37.773053, 48.092032, 0], [37.789283, 48.100177, 0], [37.792021, 48.104528, 0], [37.8002, 48.114966, 0], [37.8074126, 48.1207772, 0], [37.808937, 48.1220791, 0], [37.8168038, 48.1322916, 0], [37.819855, 48.143897, 0], [37.824622, 48.157818, 0], [37.828593, 48.17515, 0], [37.856208, 48.192846, 0], [37.88333, 48.199712, 0], [37.896571, 48.215429, 0], [37.892943, 48.233569, 0], [37.89157, 48.255061, 0], [37.895347, 48.268546, 0], [37.88816, 48.283639, 0], [37.884532, 48.298874, 0], [37.884753, 48.312293, 0], [37.888751, 48.316806, 0], [37.910345, 48.333106, 0], [37.932944, 48.361771, 0], [37.93463, 48.373991, 0], [37.94704, 48.375156, 0], [37.970152, 48.380317, 0], [37.974959, 48.381115, 0], [37.978623, 48.391275, 0], [38.004802, 48.393954, 0], [38.042123, 48.409086, 0], [38.068504, 48.408673, 0], [38.113706, 48.408013, 0], [38.117477, 48.420805, 0], [38.135244, 48.419039, 0], [38.148548, 48.414482, 0], [38.163094, 48.402117, 0], [38.154445, 48.395536, 0], [38.150093, 48.385419, 0], [38.184768, 48.37493, 0], [38.207428, 48.371509, 0], [38.214981, 48.369, 0], [38.227684, 48.367176, 0], [38.25912, 48.359806, 0], [38.273689, 48.359192, 0], [38.290706, 48.361631, 0], [38.321754, 48.371053, 0], [38.343578, 48.384437, 0], [38.354228, 48.390346, 0], [38.367914, 48.402171, 0], [38.390964, 48.415874, 0], [38.389247, 48.432278, 0], [38.393024, 48.436606, 0], [38.405377, 48.473366, 0], [38.411563, 48.51058, 0], [38.414303, 48.520605, 0], [38.402637, 48.547867, 0], [38.402637, 48.59194, 0], [38.40607, 48.60193, 0], [38.404804, 48.609098, 0], [38.404689, 48.616931, 0], [38.408809, 48.62964, 0], [38.414302, 48.638262, 0], [38.419803, 48.645048, 0], [38.431476, 48.650492, 0], [38.445202, 48.655048, 0], [38.464428, 48.656408, 0], [38.480228, 48.659111, 0], [38.496708, 48.663192, 0], [38.515247, 48.666367, 0], [38.516148, 48.670562, 0], [38.527284, 48.674642, 0], [38.539451, 48.673509, 0], [38.548978, 48.675294, 0], [38.559446, 48.686695, 0], [38.572231, 48.689056, 0], [38.577732, 48.696742, 0], [38.578419, 48.70943, 0], [38.583218, 48.71987, 0], [38.630167, 48.721172, 0], [38.678412, 48.723701, 0], [38.674549, 48.729363, 0], [38.691716, 48.729363, 0], [38.753514, 48.718492, 0], [38.767067, 48.71432, 0], [38.808438, 48.713414, 0], [38.830067, 48.717038, 0], [38.836076, 48.723267, 0], [38.847148, 48.742911, 0], [38.855387, 48.749646, 0], [38.859378, 48.74959, 0], [38.860601, 48.749788, 0], [38.860955, 48.750736, 0], [38.863879, 48.75138, 0], [38.871692, 48.751305, 0], [38.877618, 48.752589, 0], [38.879077, 48.752476, 0], [38.880236, 48.750608, 0], [38.88133, 48.750184, 0], [38.892037, 48.750438, 0], [38.898818, 48.750184, 0], [38.901092, 48.750905, 0], [38.90474, 48.750608, 0], [38.908775, 48.74925, 0], [38.911135, 48.748005, 0], [38.912572, 48.746873, 0], [38.914321, 48.744383, 0], [38.918028, 48.742911, 0], [38.919967, 48.743421, 0], [38.921306, 48.744609, 0], [38.922722, 48.745005, 0], [38.93065, 48.745274, 0], [38.933665, 48.746024, 0], [38.935055, 48.746854, 0], [38.936959, 48.747117, 0], [38.938279, 48.746682, 0], [38.938858, 48.745812, 0], [38.937957, 48.744071, 0], [38.934352, 48.742911, 0], [38.932464, 48.736798, 0], [38.934009, 48.735779, 0], [38.943707, 48.733854, 0], [38.946067, 48.734449, 0], [38.956946, 48.734067, 0], [38.961045, 48.736515, 0], [38.961217, 48.739911, 0], [38.95993, 48.742911, 0], [38.961131, 48.746137, 0], [38.964092, 48.746194, 0], [38.966946, 48.745204, 0], [38.969832, 48.743746, 0], [38.972563, 48.743584, 0], [38.974997, 48.744763, 0], [38.978812, 48.744892, 0], [38.981216, 48.743845, 0], [38.982332, 48.742189, 0], [38.982203, 48.740286, 0], [38.984456, 48.73758, 0], [38.989541, 48.734987, 0], [38.991437, 48.730608, 0], [38.998389, 48.724267, 0], [38.999333, 48.719624, 0], [38.998046, 48.717472, 0], [38.993918, 48.716189, 0], [38.988862, 48.715207, 0], [38.984742, 48.713621, 0], [38.984305, 48.711828, 0], [38.986923, 48.710158, 0], [38.991923, 48.710002, 0], [38.996922, 48.711602, 0], [38.998986, 48.711196, 0], [38.998218, 48.707674, 0], [38.999505, 48.703993, 0], [38.999848, 48.700198, 0], [39.001815, 48.698007, 0], [39.004826, 48.696345, 0], [39.015548, 48.694891, 0], [39.015727, 48.68864, 0], [39.014354, 48.683427, 0], [39.016367, 48.680943, 0], [39.019582, 48.679139, 0], [39.020276, 48.675606, 0], [39.020534, 48.672262, 0], [39.023881, 48.669882, 0], [39.026284, 48.667274, 0], [39.027486, 48.663249, 0], [39.025426, 48.661974, 0], [39.021649, 48.662399, 0], [39.018559, 48.6641, 0], [39.01298, 48.664043, 0], [39.009633, 48.662626, 0], [39.010316, 48.660084, 0], [39.012372, 48.658336, 0], [39.019153, 48.656975, 0], [39.028508, 48.653006, 0], [39.032206, 48.652874, 0], [39.033447, 48.651976, 0], [39.035546, 48.648243, 0], [39.038082, 48.647185, 0], [39.042678, 48.646466, 0], [39.054866, 48.647033, 0], [39.07435, 48.650436, 0], [39.075894, 48.651626, 0], [39.084907, 48.650662, 0], [39.098554, 48.650889, 0], [39.103618, 48.649869, 0], [39.111936, 48.653347, 0], [39.116828, 48.656748, 0], [39.123187, 48.660018, 0], [39.127307, 48.660471, 0], [39.139488, 48.65964, 0], [39.141984, 48.660868, 0], [39.142671, 48.663533, 0], [39.141641, 48.665063, 0], [39.141898, 48.66665, 0], [39.144512, 48.670911, 0], [39.148672, 48.675285, 0], [39.151941, 48.676286, 0], [39.157434, 48.675379, 0], [39.163349, 48.675739, 0], [39.174249, 48.680329, 0], [39.181638, 48.68575, 0], [39.185415, 48.693399, 0], [39.1909, 48.69982, 0], [39.195106, 48.703898, 0], [39.196508, 48.706513, 0], [39.197517, 48.706485, 0], [39.198354, 48.705777, 0], [39.199148, 48.702265, 0], [39.200371, 48.699999, 0], [39.203182, 48.698611, 0], [39.207173, 48.6983, 0], [39.219404, 48.705182, 0], [39.224897, 48.706768, 0], [39.226785, 48.708977, 0], [39.232364, 48.711412, 0], [39.23599, 48.711088, 0], [39.239588, 48.709125, 0], [39.243515, 48.709619, 0], [39.24978, 48.712564, 0], [39.2539, 48.720153, 0], [39.253307, 48.722059, 0], [39.253962, 48.724402, 0], [39.256139, 48.726872, 0], [39.259229, 48.733835, 0], [39.255282, 48.738774, 0], [39.255023, 48.740685, 0], [39.256311, 48.74227, 0], [39.258535, 48.742741, 0], [39.264468, 48.741252, 0], [39.268663, 48.741949, 0], [39.270809, 48.743987, 0], [39.271675, 48.74776, 0], [39.270302, 48.751212, 0], [39.270809, 48.752759, 0], [39.272383, 48.753887, 0], [39.274776, 48.753681, 0], [39.276658, 48.752333, 0], [39.278887, 48.749339, 0], [39.28206, 48.748608, 0], [39.286434, 48.748901, 0], [39.28952, 48.751514, 0], [39.289281, 48.753683, 0], [39.290643, 48.756248, 0], [39.291494, 48.759436, 0], [39.292617, 48.760605, 0], [39.299913, 48.763038, 0], [39.303089, 48.765414, 0], [39.308832, 48.771995, 0], [39.311844, 48.774069, 0], [39.31459, 48.774804, 0], [39.324546, 48.776049, 0], [39.326256, 48.775559, 0], [39.327972, 48.773692, 0], [39.327483, 48.772108, 0], [39.326084, 48.770015, 0], [39.326603, 48.768309, 0], [39.33167, 48.766602, 0], [39.336134, 48.76598, 0], [39.340336, 48.766301, 0], [39.347243, 48.768384, 0], [39.351063, 48.768547, 0], [39.352781, 48.767941, 0], [39.354502, 48.766828, 0], [39.353893, 48.76549, 0], [39.351326, 48.763094, 0], [39.349172, 48.762152, 0], [39.345528, 48.761661, 0], [39.343363, 48.759209, 0], [39.343138, 48.757361, 0], [39.346176, 48.751042, 0], [39.347027, 48.750212, 0], [39.347206, 48.745779, 0], [39.349266, 48.742496, 0], [39.358192, 48.737005, 0], [39.358871, 48.736175, 0], [39.358875, 48.733901, 0], [39.354072, 48.729646, 0], [39.353722, 48.726891, 0], [39.355224, 48.725249, 0], [39.361532, 48.722304, 0], [39.369128, 48.720068, 0], [39.372604, 48.71987, 0], [39.374183, 48.718652, 0], [39.373787, 48.717492, 0], [39.37208, 48.715934, 0], [39.370458, 48.715962, 0], [39.365266, 48.71684, 0], [39.360159, 48.715679, 0], [39.354131, 48.713244, 0], [39.348638, 48.713471, 0], [39.346855, 48.712224, 0], [39.348657, 48.708713, 0], [39.350503, 48.707637, 0], [39.355953, 48.697214, 0], [39.360311, 48.695798, 0], [39.36589, 48.692229, 0], [39.367316, 48.691974, 0], [39.377986, 48.686237, 0], [39.379557, 48.686279, 0], [39.381702, 48.685514, 0], [39.389599, 48.684749, 0], [39.390929, 48.683758, 0], [39.38917, 48.680386, 0], [39.390524, 48.678799, 0], [39.397991, 48.674605, 0], [39.402645, 48.674435, 0], [39.405821, 48.673812, 0], [39.411724, 48.670524, 0], [39.41387, 48.668427, 0], [39.413526, 48.66684, 0], [39.408205, 48.661454, 0], [39.408033, 48.65981, 0], [39.410694, 48.657656, 0], [39.414232, 48.656692, 0], [39.420746, 48.658223, 0], [39.432323, 48.656749, 0], [39.438948, 48.65494, 0], [39.446501, 48.656301, 0], [39.450176, 48.655672, 0], [39.452373, 48.65471, 0], [39.453385, 48.652812, 0], [39.451308, 48.651708, 0], [39.449798, 48.650401, 0], [39.449575, 48.644557, 0], [39.45164, 48.641033, 0], [39.454215, 48.639786, 0], [39.457562, 48.638651, 0], [39.465813, 48.638665, 0], [39.46739, 48.637233, 0], [39.464268, 48.634014, 0], [39.464011, 48.631064, 0], [39.46563, 48.628186, 0], [39.468592, 48.627448, 0], [39.476102, 48.628753, 0], [39.484148, 48.6282, 0], [39.486273, 48.628895, 0], [39.493011, 48.630426, 0], [39.495543, 48.632128, 0], [39.500435, 48.632554, 0], [39.510434, 48.634454, 0], [39.514088, 48.633837, 0], [39.516024, 48.632199, 0], [39.516711, 48.629986, 0], [39.516269, 48.62797, 0], [39.515424, 48.626186, 0], [39.511978, 48.623546, 0], [39.511647, 48.621874, 0], [39.516784, 48.618099, 0], [39.525723, 48.613022, 0], [39.527182, 48.611263, 0], [39.52782, 48.60946, 0], [39.52728, 48.608275, 0], [39.523479, 48.605103, 0], [39.522633, 48.602977, 0], [39.525385, 48.598198, 0], [39.528046, 48.597177, 0], [39.532423, 48.596439, 0], [39.533588, 48.59546, 0], [39.533208, 48.593631, 0], [39.528131, 48.591841, 0], [39.526912, 48.58955, 0], [39.528715, 48.585945, 0], [39.531204, 48.58427, 0], [39.537384, 48.58339, 0], [39.545022, 48.583929, 0], [39.549314, 48.585973, 0], [39.550559, 48.588585, 0], [39.549486, 48.59324, 0], [39.551202, 48.595568, 0], [39.55867, 48.598008, 0], [39.56176, 48.598008, 0], [39.563304, 48.597441, 0], [39.565634, 48.593952, 0], [39.567302, 48.59212, 0], [39.567277, 48.590239, 0], [39.566051, 48.588301, 0], [39.563145, 48.586231, 0], [39.562968, 48.583632, 0], [39.568071, 48.58185, 0], [39.573347, 48.580522, 0], [39.576535, 48.581234, 0], [39.577779, 48.582881, 0], [39.581771, 48.585038, 0], [39.592536, 48.591297, 0], [39.596349, 48.592389, 0], [39.601757, 48.591537, 0], [39.604589, 48.588812, 0], [39.605018, 48.586768, 0], [39.604074, 48.586257, 0], [39.600641, 48.585746, 0], [39.594804, 48.57933, 0], [39.594989, 48.576691, 0], [39.596313, 48.575029, 0], [39.603645, 48.574106, 0], [39.608022, 48.572714, 0], [39.612486, 48.572913, 0], [39.61373, 48.5749, 0], [39.61755, 48.577115, 0], [39.62124, 48.581942, 0], [39.621927, 48.585803, 0], [39.622828, 48.586371, 0], [39.623644, 48.586087, 0], [39.631969, 48.580693, 0], [39.635316, 48.58004, 0], [39.657547, 48.584667, 0], [39.658748, 48.585632, 0], [39.667589, 48.586768, 0], [39.672224, 48.588414, 0], [39.676516, 48.588188, 0], [39.677288, 48.587563, 0], [39.687271, 48.587084, 0], [39.691635, 48.586378, 0], [39.697765, 48.58716, 0], [39.702546, 48.587778, 0], [39.714893, 48.585248, 0], [39.721237, 48.584834, 0], [39.723379, 48.586216, 0], [39.726252, 48.586624, 0], [39.730178, 48.585919, 0], [39.734629, 48.585851, 0], [39.738743, 48.586838, 0], [39.744319, 48.590057, 0], [39.746721, 48.590673, 0], [39.749038, 48.590243, 0], [39.751054, 48.588836, 0], [39.75055, 48.583338, 0], [39.751295, 48.58209, 0], [39.754759, 48.583, 0], [39.770368, 48.587994, 0], [39.772062, 48.591601, 0], [39.773425, 48.592326, 0], [39.789985, 48.593369, 0], [39.796119, 48.591847, 0], [39.800216, 48.589553, 0], [39.804495, 48.585454, 0], [39.80861, 48.583972, 0], [39.812855, 48.583855, 0], [39.82236, 48.586636, 0], [39.825051, 48.586152, 0], [39.826311, 48.584207, 0], [39.825482, 48.581645, 0], [39.820604, 48.579285, 0], [39.821685, 48.578332, 0], [39.846829, 48.572934, 0], [39.85763, 48.561413, 0], [39.854533, 48.552999, 0], [39.858045, 48.545366, 0], [39.857486, 48.537401, 0], [39.866756, 48.508883, 0], [39.866135, 48.504775, 0], [39.861877, 48.501924, 0], [39.856659, 48.501636, 0], [39.853191, 48.503425, 0], [39.84871, 48.50284, 0], [39.846469, 48.499306, 0], [39.847884, 48.495108, 0], [39.847753, 48.485678, 0], [39.846338, 48.473712, 0], [39.857752, 48.463363, 0], [39.897326, 48.448112, 0], [39.898555, 48.445972, 0], [39.896766, 48.44422, 0], [39.889864, 48.443571, 0], [39.888817, 48.441993, 0], [39.895926, 48.429242, 0], [39.910297, 48.421956, 0], [39.912763, 48.41558, 0], [39.906484, 48.407494, 0], [39.906312, 48.403562, 0], [39.908459, 48.402052, 0], [39.91605, 48.40061, 0], [39.918644, 48.397611, 0], [39.917405, 48.39481, 0], [39.906743, 48.392269, 0], [39.905962, 48.390316, 0], [39.907802, 48.388712, 0], [39.914558, 48.386827, 0], [39.916306, 48.384231, 0], [39.917522, 48.379228, 0], [39.92122, 48.375928, 0], [39.926845, 48.375075, 0], [39.93189, 48.376929, 0], [39.935271, 48.384697, 0], [39.938309, 48.387562, 0], [39.941535, 48.387072, 0], [39.943278, 48.383791, 0], [39.934751, 48.372274, 0], [39.93675, 48.367136, 0], [39.940668, 48.365023, 0], [39.939451, 48.360773, 0], [39.944422, 48.357166, 0], [39.94253, 48.354963, 0], [39.947507, 48.35523, 0], [39.943644, 48.34812, 0], [39.930727, 48.348957, 0], [39.918603, 48.347207, 0], [39.918581, 48.341692, 0], [39.877934, 48.334073, 0], [39.859703, 48.334566, 0], [39.845593, 48.332774, 0], [39.845217, 48.329499, 0], [39.840394, 48.329117, 0], [39.842102, 48.31831, 0], [39.841068, 48.310051, 0], [39.887199, 48.308777, 0], [39.887968, 48.307317, 0], [39.886916, 48.304089, 0], [39.903117, 48.29889, 0], [39.910188, 48.292982, 0], [39.912695, 48.288202, 0], [39.909745, 48.287526, 0], [39.911103, 48.285018, 0], [39.910753, 48.282907, 0], [39.909377, 48.280766, 0], [39.910064, 48.27901, 0], [39.908434, 48.278133, 0], [39.90822, 48.277008, 0], [39.909508, 48.276717, 0], [39.909686, 48.276012, 0], [39.910418, 48.276031, 0], [39.911385, 48.275269, 0], [39.912254, 48.273746, 0], [39.911831, 48.27277, 0], [39.910589, 48.272153, 0], [39.910269, 48.271645, 0], [39.911139, 48.27102, 0], [39.913076, 48.271193, 0], [39.914065, 48.271958, 0], [39.914753, 48.271887, 0], [39.915049, 48.271344, 0], [39.91458, 48.270755, 0], [39.91426, 48.269847, 0], [39.914829, 48.269678, 0], [39.917496, 48.270094, 0], [39.91898, 48.270601, 0], [39.919657, 48.271298, 0], [39.921069, 48.27166, 0], [39.922955, 48.271306, 0], [39.924907, 48.271485, 0], [39.925969, 48.27216, 0], [39.925899, 48.272969, 0], [39.925628, 48.273588, 0], [39.925836, 48.273969, 0], [39.927291, 48.275387, 0], [39.927869, 48.276582, 0], [39.929638, 48.277779, 0], [39.931596, 48.277992, 0], [39.932875, 48.279241, 0], [39.934695, 48.279066, 0], [39.934978, 48.27975, 0], [39.934112, 48.280735, 0], [39.932176, 48.281213, 0], [39.930286, 48.28238, 0], [39.930156, 48.282764, 0], [39.930585, 48.283285, 0], [39.932108, 48.28373, 0], [39.933277, 48.283753, 0], [39.934098, 48.283479, 0], [39.935023, 48.28377, 0], [39.936215, 48.285058, 0], [39.93664, 48.286887, 0], [39.937024, 48.288116, 0], [39.936615, 48.289958, 0], [39.936882, 48.291565, 0], [39.937703, 48.292225, 0], [39.938521, 48.292127, 0], [39.941612, 48.292849, 0], [39.943716, 48.29191, 0], [39.94481, 48.292027, 0], [39.945958, 48.292741, 0], [39.946532, 48.293784, 0], [39.947227, 48.294163, 0], [39.948411, 48.294295, 0], [39.948426, 48.2961, 0], [39.949037, 48.296715, 0], [39.950737, 48.297222, 0], [39.950836, 48.297733, 0], [39.949619, 48.298845, 0], [39.949848, 48.299401, 0], [39.951958, 48.300093, 0], [39.952219, 48.301038, 0], [39.951769, 48.302131, 0], [39.951995, 48.302392, 0], [39.951721, 48.30305, 0], [39.951971, 48.303551, 0], [39.952975, 48.303915, 0], [39.954057, 48.304012, 0], [39.955606, 48.303746, 0], [39.95666, 48.303185, 0], [39.956822, 48.302619, 0], [39.956744, 48.302164, 0], [39.956881, 48.301109, 0], [39.956375, 48.300525, 0], [39.955928, 48.300333, 0], [39.955748, 48.299894, 0], [39.955975, 48.299256, 0], [39.958283, 48.29805, 0], [39.959305, 48.298838, 0], [39.95969, 48.29924, 0], [39.960677, 48.299441, 0], [39.963337, 48.299085, 0], [39.964946, 48.299649, 0], [39.966159, 48.299803, 0], [39.966722, 48.299651, 0], [39.967454, 48.299147, 0], [39.96958, 48.298638, 0], [39.970224, 48.298747, 0], [39.97061, 48.298986, 0], [39.970213, 48.300391, 0], [39.970616, 48.301179, 0], [39.971031, 48.301487, 0], [39.971011, 48.302796, 0], [39.969463, 48.303131, 0], [39.968018, 48.302835, 0], [39.96697, 48.302832, 0], [39.965793, 48.302715, 0], [39.964466, 48.302099, 0], [39.963545, 48.302126, 0], [39.963063, 48.302596, 0], [39.963208, 48.30326, 0], [39.963882, 48.303463, 0], [39.964838, 48.304458, 0], [39.965441, 48.304678, 0], [39.965814, 48.305656, 0], [39.965678, 48.306403, 0], [39.966383, 48.306776, 0], [39.967636, 48.306805, 0], [39.968735, 48.307134, 0], [39.970808, 48.307084, 0], [39.971265, 48.307302, 0], [39.971236, 48.307796, 0], [39.970793, 48.308971, 0], [39.97188, 48.309716, 0], [39.971029, 48.311629, 0], [39.972492, 48.312971, 0], [39.974425, 48.313471, 0], [39.975498, 48.31432, 0], [39.977623, 48.315173, 0], [39.9789, 48.315713, 0], [39.980311, 48.315784, 0], [39.982518, 48.315704, 0], [39.98418, 48.316207, 0], [39.985311, 48.317001, 0], [39.986949, 48.317512, 0], [39.990815, 48.317082, 0], [39.991074, 48.316582, 0], [39.990989, 48.316061, 0], [39.993222, 48.313596, 0], [39.993522, 48.312877, 0], [39.994188, 48.312696, 0], [39.993984, 48.312006, 0], [39.99208, 48.309735, 0], [39.991922, 48.306002, 0], [39.992658, 48.305619, 0], [39.994253, 48.303181, 0], [39.995017, 48.300847, 0], [39.9966, 48.297938, 0], [40.000534, 48.291716, 0], [39.999745, 48.28929, 0], [40.008963, 48.272654, 0], [40.01383, 48.27159, 0], [40.016777, 48.269458, 0], [40.015504, 48.262679, 0], [40.018989, 48.25706, 0], [40.018671, 48.255051, 0], [40.01892, 48.254104, 0], [40.018862, 48.253116, 0], [40.01951, 48.252508, 0], [40.007323, 48.242058, 0], [40.003076, 48.239476, 0], [40.002732, 48.237535, 0], [40.003977, 48.236061, 0], [40.004342, 48.232348, 0], [40.007443, 48.230091, 0], [40.008222, 48.228104, 0], [40.008396, 48.225139, 0], [40.00754, 48.223312, 0], [40.003379, 48.223686, 0], [40.000868, 48.225245, 0], [39.972276, 48.227025, 0], [39.953304, 48.229408, 0], [39.942194, 48.230744, 0], [39.940934, 48.18081, 0], [39.913886, 48.178015, 0], [39.909184, 48.16933, 0], [39.910275, 48.138416, 0], [39.879951, 48.115164, 0], [39.868584, 48.079444, 0], [39.832202, 48.0665, 0], [39.885886, 48.047866, 0], [39.877208, 48.041378, 0], [39.779662, 48.039336, 0], [39.786777, 48.025034, 0], [39.785081, 48.023125, 0], [39.795218, 48.010703, 0], [39.797687, 48.009306, 0], [39.802998, 48.007948, 0], [39.804541, 48.006459, 0], [39.810975, 48.004856, 0], [39.81672, 48.001463, 0], [39.816518, 48.000116, 0], [39.813736, 47.998502, 0], [39.813771, 47.996697, 0], [39.817916, 47.994778, 0], [39.81618, 47.992798, 0], [39.816717, 47.984542, 0], [39.823031, 47.98354, 0], [39.822798, 47.979535, 0], [39.819849, 47.977446, 0], [39.817538, 47.976646, 0], [39.815117, 47.973617, 0], [39.815408, 47.970866, 0], [39.819844, 47.967762, 0], [39.827391, 47.950834, 0], [39.805888, 47.950562, 0], [39.806594, 47.933666, 0], [39.793904, 47.915897, 0], [39.794941, 47.866833, 0], [39.762505, 47.870145, 0], [39.763184, 47.846537, 0], [39.73791, 47.827729, 0], [39.565587, 47.836556, 0], [39.542168, 47.824981, 0], [39.534491, 47.83253, 0], [39.520308, 47.825141, 0], [39.478474, 47.859474, 0], [39.44625, 47.850644, 0], [39.437354, 47.839834, 0], [39.412529, 47.830898, 0], [39.39045, 47.866185, 0], [39.241734, 47.867014, 0], [39.236213, 47.853953, 0], [39.149682, 47.842582, 0], [39.109535, 47.842747, 0], [39.109389, 47.851752, 0], [39.082891, 47.851604, 0]]]}}, {"type": "Feature", "properties": {"name": "\u041e\u043a\u0443\u043f\u043e\u0432\u0430\u043d\u043e /// Occupied", "date": "2023-04-30"}, "geometry": {"type": "Polygon", "coordinates": [[[37.856208, 48.192846, 0], [37.828593, 48.17515, 0], [37.824622, 48.157818, 0], [37.819855, 48.143897, 0], [37.8168038, 48.1322916, 0], [37.808937, 48.1220791, 0], [37.8074126, 48.1207772, 0], [37.8071757, 48.1230277, 0], [37.8091907, 48.1279581, 0], [37.8141149, 48.1317887, 0], [37.8160624, 48.1334741, 0], [37.8161217, 48.139513, 0], [37.811262, 48.139277, 0], [37.8096312, 48.140938, 0], [37.8154846, 48.1441139, 0], [37.8079891, 48.149706, 0], [37.8022091, 48.1519763, 0], [37.7968153, 48.1523858, 0], [37.795026, 48.156918, 0], [37.8054973, 48.1643609, 0], [37.8032187, 48.1715824, 0], [37.784716, 48.1698998, 0], [37.7820315, 48.1716912, 0], [37.777802, 48.176287, 0], [37.770163, 48.175069, 0], [37.770185, 48.1808275, 0], [37.75333, 48.179957, 0], [37.7413655, 48.1800024, 0], [37.7407035, 48.182487, 0], [37.733345, 48.184286, 0], [37.726847, 48.192564, 0], [37.7198361, 48.1956495, 0], [37.7147433, 48.2021619, 0], [37.7152715, 48.2043546, 0], [37.7105508, 48.2038118, 0], [37.711075, 48.20647, 0], [37.7134871, 48.2115311, 0], [37.720582, 48.212573, 0], [37.734724, 48.213312, 0], [37.734829, 48.217182, 0], [37.7408741, 48.2176742, 0], [37.7393076, 48.2254134, 0], [37.7432057, 48.2265477, 0], [37.7417857, 48.2343885, 0], [37.7352163, 48.2343388, 0], [37.7348634, 48.2363104, 0], [37.740015, 48.244531, 0], [37.748362, 48.24966, 0], [37.749757, 48.251102, 0], [37.752514, 48.25266, 0], [37.757698, 48.255245, 0], [37.765101, 48.255692, 0], [37.773619, 48.255109, 0], [37.773276, 48.256916, 0], [37.771517, 48.261445, 0], [37.772461, 48.262731, 0], [37.778396, 48.265821, 0], [37.789525, 48.266728, 0], [37.788929, 48.27134, 0], [37.806681, 48.272586, 0], [37.807063, 48.276896, 0], [37.840612, 48.27931, 0], [37.8448612, 48.2798903, 0], [37.847996, 48.282355, 0], [37.869693, 48.281851, 0], [37.88816, 48.283639, 0], [37.895347, 48.268546, 0], [37.89157, 48.255061, 0], [37.892943, 48.233569, 0], [37.896571, 48.215429, 0], [37.88333, 48.199712, 0], [37.856208, 48.192846, 0]]]}}, {"type": "Feature", "properties": {"name": "\u041e\u043a\u0443\u043f\u043e\u0432\u0430\u043d\u043e /// Occupied", "date": "2023-04-30"}, "geometry": {"type": "Polygon", "coordinates": [[[38.55969, 48.830068, 0], [38.495293, 48.870737, 0], [38.474906, 48.903594, 0], [38.413479, 48.93997, 0], [38.402357, 48.955659, 0], [38.36998, 48.981882, 0], [38.299791, 49.024992, 0], [38.284528, 49.026568, 0], [38.262698, 49.024532, 0], [38.241062, 49.005535, 0], [38.258858, 48.969268, 0], [38.244862, 48.956245, 0], [38.237048, 48.956521, 0], [38.233873, 48.95314, 0], [38.234227, 48.946566, 0], [38.23465, 48.944666, 0], [38.219196, 48.942768, 0], [38.214046, 48.94925, 0], [38.213016, 48.955169, 0], [38.209505, 48.966338, 0], [38.197298, 48.974052, 0], [38.19031, 48.974542, 0], [38.186582, 48.984045, 0], [38.171359, 48.983276, 0], [38.1536401, 48.9788272, 0], [38.1386713, 48.9779788, 0], [38.119989, 48.982522, 0], [38.109586, 48.979957, 0], [38.094721, 48.979982, 0], [38.093914, 48.98606, 0], [38.098026, 48.99471, 0], [38.097624, 49.000293, 0], [38.098728, 49.006827, 0], [38.095247, 49.01355, 0], [38.0835, 49.016861, 0], [38.079279, 49.022668, 0], [38.065617, 49.022508, 0], [38.044132, 49.021847, 0], [38.026179, 49.018255, 0], [38.003077, 49.019388, 0], [37.993944, 49.035158, 0], [37.982738, 49.03525, 0], [37.980308, 49.04424, 0], [37.988362, 49.046821, 0], [37.984056, 49.05244, 0], [38.003829, 49.054556, 0], [38.017338, 49.057231, 0], [38.018566, 49.062924, 0], [38.063398, 49.064564, 0], [38.06842, 49.092253, 0], [38.06779, 49.096014, 0], [38.080758, 49.123777, 0], [38.084664, 49.12895, 0], [38.086336, 49.134796, 0], [38.08325, 49.148762, 0], [38.071336, 49.160272, 0], [38.061306, 49.174695, 0], [38.056427, 49.184573, 0], [38.05054, 49.189215, 0], [38.047226, 49.190491, 0], [38.048495, 49.203085, 0], [38.056524, 49.214303, 0], [38.025015, 49.228302, 0], [38.024741, 49.237367, 0], [38.023708, 49.256804, 0], [38.010476, 49.272368, 0], [38.015094, 49.28118, 0], [38.017964, 49.287781, 0], [38.014439, 49.293347, 0], [38.015946, 49.300339, 0], [38.013438, 49.30932, 0], [38.015306, 49.314049, 0], [38.009462, 49.323434, 0], [38.00714, 49.333329, 0], [38.000354, 49.342105, 0], [37.993064, 49.349097, 0], [37.98268, 49.355194, 0], [37.967753, 49.366389, 0], [37.95264, 49.38037, 0], [37.943196, 49.392525, 0], [37.944869, 49.395759, 0], [37.942766, 49.398993, 0], [37.948687, 49.403562, 0], [37.92878, 49.424289, 0], [37.940642, 49.444244, 0], [37.93843, 49.463082, 0], [37.9686, 49.480282, 0], [37.967348, 49.504851, 0], [37.964313, 49.515762, 0], [37.964197, 49.519956, 0], [37.961823, 49.528122, 0], [37.963386, 49.541979, 0], [37.956747, 49.542779, 0], [37.947273, 49.547004, 0], [37.94535, 49.553234, 0], [37.954209, 49.565917, 0], [37.957508, 49.573468, 0], [37.943667, 49.58142, 0], [37.937911, 49.590606, 0], [37.938162, 49.600571, 0], [37.928929, 49.620366, 0], [37.928449, 49.624369, 0], [37.931093, 49.628815, 0], [37.9283, 49.634108, 0], [37.920291, 49.640434, 0], [37.916312, 49.648205, 0], [37.912874, 49.658755, 0], [37.91796, 49.678426, 0], [37.916006, 49.691425, 0], [37.9133, 49.707206, 0], [37.91149, 49.723603, 0], [37.8894118, 49.7285101, 0], [37.876222, 49.7330814, 0], [37.878137, 49.736596, 0], [37.884199, 49.745513, 0], [37.867087, 49.749245, 0], [37.852031, 49.754638, 0], [37.842572, 49.755339, 0], [37.809081, 49.757307, 0], [37.764871, 49.775915, 0], [37.7258454, 49.7725965, 0], [37.7116889, 49.7747183, 0], [37.694848, 49.785788, 0], [37.688672, 49.788554, 0], [37.685239, 49.790189, 0], [37.704277, 49.82104, 0], [37.709887, 49.830256, 0], [37.705014, 49.832152, 0], [37.701172, 49.831004, 0], [37.698204, 49.832045, 0], [37.702447, 49.839951, 0], [37.701148, 49.848675, 0], [37.70339, 49.850689, 0], [37.707734, 49.852978, 0], [37.716123, 49.856783, 0], [37.726015, 49.859038, 0], [37.728262, 49.860706, 0], [37.732746, 49.866107, 0], [37.732253, 49.875381, 0], [37.74046, 49.884523, 0], [37.754853, 49.897594, 0], [37.766756, 49.899654, 0], [37.773749, 49.907092, 0], [37.78544, 49.932338, 0], [37.793004, 49.940646, 0], [37.802204, 49.943098, 0], [37.80726, 49.954079, 0], [37.819873, 49.956224, 0], [37.831706, 49.971647, 0], [37.854697, 49.970239, 0], [37.874909, 49.980064, 0], [37.886663, 49.980172, 0], [37.887515, 49.987781, 0], [37.892833, 49.989099, 0], [37.901757, 50.003659, 0], [37.913076, 50.003078, 0], [37.924736, 50.012396, 0], [37.940048, 50.015142, 0], [37.962041, 49.982918, 0], [37.965809, 49.979304, 0], [37.980562, 49.976794, 0], [37.999075, 49.963601, 0], [38.005373, 49.967245, 0], [38.043687, 49.932897, 0], [38.012367, 49.918497, 0], [38.033921, 49.904761, 0], [38.056464, 49.923247, 0], [38.124994, 49.942552, 0], [38.126682, 49.92215, 0], [38.171565, 49.941901, 0], [38.162402, 49.951496, 0], [38.196332, 49.969759, 0], [38.217126, 49.987182, 0], [38.210852, 49.989247, 0], [38.207712, 49.991511, 0], [38.204578, 49.997644, 0], [38.205135, 50.001004, 0], [38.202728, 50.001836, 0], [38.200786, 50.003778, 0], [38.201117, 50.004728, 0], [38.197286, 50.008256, 0], [38.192054, 50.014595, 0], [38.186831, 50.02169, 0], [38.185416, 50.022222, 0], [38.186149, 50.022947, 0], [38.188245, 50.023603, 0], [38.187923, 50.04072, 0], [38.183827, 50.045832, 0], [38.185066, 50.055692, 0], [38.178568, 50.079969, 0], [38.25406, 50.072508, 0], [38.275781, 50.07344, 0], [38.291493, 50.079436, 0], [38.301154, 50.087142, 0], [38.313196, 50.088337, 0], [38.329442, 50.08551, 0], [38.333976, 50.059093, 0], [38.3512, 50.034741, 0], [38.354164, 50.019048, 0], [38.349575, 50.006444, 0], [38.397563, 49.990585, 0], [38.416008, 49.981338, 0], [38.434095, 50.001019, 0], [38.46804, 49.995247, 0], [38.465914, 49.983961, 0], [38.47752, 49.983271, 0], [38.4833, 49.976528, 0], [38.487706, 49.963602, 0], [38.507898, 49.96403, 0], [38.526715, 49.958271, 0], [38.58157, 49.977416, 0], [38.616078, 49.97439, 0], [38.646196, 49.955937, 0], [38.666941, 49.972156, 0], [38.679731, 49.974494, 0], [38.676054, 49.992814, 0], [38.679052, 50.005448, 0], [38.687546, 50.008152, 0], [38.715136, 49.98771, 0], [38.715315, 49.982384, 0], [38.6853, 49.960344, 0], [38.6929, 49.934766, 0], [38.723247, 49.927005, 0], [38.733846, 49.905025, 0], [38.743847, 49.897307, 0], [38.768232, 49.896044, 0], [38.777683, 49.88532, 0], [38.783488, 49.881113, 0], [38.79015, 49.87851, 0], [38.794958, 49.88331, 0], [38.822432, 49.878984, 0], [38.825105, 49.878965, 0], [38.826733, 49.878445, 0], [38.828584, 49.877172, 0], [38.833654, 49.874806, 0], [38.834862, 49.874655, 0], [38.835579, 49.874459, 0], [38.836414, 49.873896, 0], [38.837392, 49.872222, 0], [38.835371, 49.870964, 0], [38.836346, 49.867366, 0], [38.839345, 49.865762, 0], [38.84329, 49.865145, 0], [38.845669, 49.86581, 0], [38.849104, 49.865103, 0], [38.856713, 49.869139, 0], [38.869398, 49.864488, 0], [38.874563, 49.866638, 0], [38.876416, 49.869423, 0], [38.898467, 49.870416, 0], [38.909338, 49.860103, 0], [38.916488, 49.859925, 0], [38.918648, 49.8579, 0], [38.90967, 49.850849, 0], [38.90505, 49.849149, 0], [38.906706, 49.845044, 0], [38.912225, 49.844315, 0], [38.913878, 49.836114, 0], [38.911398, 49.834589, 0], [38.915094, 49.831059, 0], [38.913507, 49.82863, 0], [38.907392, 49.828412, 0], [38.909372, 49.81917, 0], [38.919124, 49.814665, 0], [38.916163, 49.812724, 0], [38.919189, 49.808942, 0], [38.920357, 49.804946, 0], [38.9287, 49.803888, 0], [38.927421, 49.801381, 0], [38.927811, 49.798576, 0], [38.930753, 49.797174, 0], [38.93291, 49.79758, 0], [38.933474, 49.799778, 0], [38.94035, 49.800888, 0], [38.946663, 49.797806, 0], [38.949095, 49.796102, 0], [38.971138, 49.807221, 0], [38.984906, 49.807783, 0], [39.02166, 49.82091, 0], [39.033522, 49.822372, 0], [39.066233, 49.815349, 0], [39.069763, 49.818731, 0], [39.110366, 49.837773, 0], [39.130738, 49.861568, 0], [39.178402, 49.888001, 0], [39.188395, 49.886222, 0], [39.225656, 49.840184, 0], [39.228114, 49.816503, 0], [39.228992, 49.808432, 0], [39.239146, 49.798226, 0], [39.240372, 49.791123, 0], [39.250371, 49.777802, 0], [39.264639, 49.76848, 0], [39.27547, 49.768026, 0], [39.28556, 49.755666, 0], [39.307924, 49.753044, 0], [39.376963, 49.738424, 0], [39.412062, 49.753111, 0], [39.438201, 49.760006, 0], [39.478761, 49.756475, 0], [39.533835, 49.740848, 0], [39.610109, 49.733798, 0], [39.59136, 49.719134, 0], [39.613305, 49.691362, 0], [39.638379, 49.6351, 0], [39.659995, 49.614811, 0], [39.686926, 49.611558, 0], [39.696747, 49.604291, 0], [39.712747, 49.605923, 0], [39.750232, 49.596719, 0], [39.805312, 49.55805, 0], [39.838914, 49.563518, 0], [39.890224, 49.558359, 0], [39.934601, 49.572783, 0], [39.952223, 49.596549, 0], [40.056729, 49.606573, 0], [40.063538, 49.599233, 0], [40.135258, 49.616254, 0], [40.139525, 49.596274, 0], [40.168435, 49.568921, 0], [40.037599, 49.519895, 0], [40.04176, 49.499103, 0], [40.02919, 49.453599, 0], [40.047204, 49.444878, 0], [40.059551, 49.435263, 0], [40.076909, 49.409957, 0], [40.105631, 49.391292, 0], [40.113402, 49.385696, 0], [40.129549, 49.382381, 0], [40.144598, 49.377667, 0], [40.156906, 49.372669, 0], [40.162603, 49.367837, 0], [40.159805, 49.366018, 0], [40.170182, 49.3564, 0], [40.176429, 49.356618, 0], [40.196814, 49.345228, 0], [40.188526, 49.307443, 0], [40.18404, 49.303985, 0], [40.185745, 49.284288, 0], [40.219264, 49.265172, 0], [40.220806, 49.257774, 0], [40.21437, 49.244887, 0], [40.208815, 49.242226, 0], [40.188228, 49.238626, 0], [40.177084, 49.237489, 0], [40.137226, 49.239885, 0], [40.12297, 49.230991, 0], [40.10829, 49.210883, 0], [40.092759, 49.203164, 0], [40.07613, 49.186828, 0], [40.031575, 49.180241, 0], [39.972108, 49.124488, 0], [39.958701, 49.105564, 0], [39.938169, 49.082798, 0], [39.942532, 49.071347, 0], [39.937951, 49.056277, 0], [39.910263, 49.057462, 0], [39.880305, 49.06432, 0], [39.803143, 49.059202, 0], [39.787133, 49.049358, 0], [39.766623, 49.040132, 0], [39.74032, 49.04222, 0], [39.693366, 49.05054, 0], [39.682089, 49.045779, 0], [39.673217, 49.03933, 0], [39.683582, 49.036925, 0], [39.681736, 49.028733, 0], [39.675663, 49.026888, 0], [39.673658, 49.014934, 0], [39.679204, 49.012886, 0], [39.670277, 49.003148, 0], [39.663411, 49.000872, 0], [39.67693, 48.989538, 0], [39.691124, 48.99629, 0], [39.691134, 48.996972, 0], [39.693269, 48.999302, 0], [39.69527, 48.999046, 0], [39.696381, 48.999388, 0], [39.697038, 49.000206, 0], [39.698103, 49.000827, 0], [39.699288, 49.00097, 0], [39.703825, 48.99933, 0], [39.705674, 48.997642, 0], [39.706395, 48.996107, 0], [39.70761, 48.995543, 0], [39.708498, 48.994431, 0], [39.707619, 48.99359, 0], [39.707705, 48.992742, 0], [39.708328, 48.992446, 0], [39.709715, 48.992613, 0], [39.711548, 48.991803, 0], [39.711804, 48.990827, 0], [39.71264, 48.990129, 0], [39.714607, 48.990111, 0], [39.71535, 48.989709, 0], [39.715408, 48.98858, 0], [39.715712, 48.987992, 0], [39.71677, 48.987067, 0], [39.716919, 48.986242, 0], [39.7165, 48.98561, 0], [39.716724, 48.984912, 0], [39.717413, 48.984588, 0], [39.717618, 48.984363, 0], [39.717923, 48.983377, 0], [39.717623, 48.982354, 0], [39.718976, 48.981629, 0], [39.721521, 48.981288, 0], [39.723364, 48.98052, 0], [39.725227, 48.980236, 0], [39.726381, 48.979461, 0], [39.726482, 48.978679, 0], [39.724478, 48.978068, 0], [39.72482, 48.976565, 0], [39.727004, 48.975591, 0], [39.730221, 48.976738, 0], [39.729833, 48.978068, 0], [39.732802, 48.979429, 0], [39.733368, 48.980748, 0], [39.736045, 48.982483, 0], [39.747268, 48.987412, 0], [39.75208, 48.986592, 0], [39.776879, 48.946025, 0], [39.790097, 48.938471, 0], [39.782372, 48.915745, 0], [39.805377, 48.914842, 0], [39.818936, 48.907791, 0], [39.833741, 48.900823, 0], [39.836789, 48.903052, 0], [39.845802, 48.902911, 0], [39.853161, 48.890737, 0], [39.924336, 48.895717, 0], [39.940309, 48.886691, 0], [39.950652, 48.875459, 0], [39.99343, 48.868286, 0], [40.00398, 48.900793, 0], [40.018063, 48.907791, 0], [40.031195, 48.915801, 0], [40.048495, 48.910186, 0], [40.055495, 48.910098, 0], [40.071286, 48.876975, 0], [40.078831, 48.869867, 0], [39.976403, 48.793903, 0], [39.936737, 48.800795, 0], [39.886255, 48.820946, 0], [39.830439, 48.833554, 0], [39.827832, 48.831465, 0], [39.807503, 48.838581, 0], [39.808044, 48.83948, 0], [39.804672, 48.843576, 0], [39.797126, 48.840576, 0], [39.785854, 48.799158, 0], [39.780194, 48.786082, 0], [39.777638, 48.784869, 0], [39.773495, 48.784419, 0], [39.771516, 48.783491, 0], [39.769706, 48.780787, 0], [39.766213, 48.779168, 0], [39.765451, 48.778079, 0], [39.765805, 48.776513, 0], [39.765644, 48.775498, 0], [39.763971, 48.7746, 0], [39.762426, 48.772562, 0], [39.762771, 48.771699, 0], [39.76363, 48.771034, 0], [39.766036, 48.771031, 0], [39.76866, 48.769329, 0], [39.768551, 48.76631, 0], [39.766204, 48.764237, 0], [39.76094, 48.763862, 0], [39.755303, 48.767977, 0], [39.740082, 48.766418, 0], [39.736376, 48.752183, 0], [39.736921, 48.748898, 0], [39.738736, 48.747477, 0], [39.739575, 48.744478, 0], [39.739365, 48.743631, 0], [39.738408, 48.743224, 0], [39.737309, 48.743188, 0], [39.736185, 48.7434, 0], [39.735438, 48.743794, 0], [39.735017, 48.744443, 0], [39.734497, 48.744932, 0], [39.733671, 48.745162, 0], [39.732192, 48.744333, 0], [39.731647, 48.742096, 0], [39.728882, 48.74109, 0], [39.725011, 48.740452, 0], [39.725599, 48.737681, 0], [39.724062, 48.734598, 0], [39.722706, 48.731886, 0], [39.726615, 48.729372, 0], [39.725463, 48.72709, 0], [39.704838, 48.721463, 0], [39.712262, 48.715916, 0], [39.712561, 48.71167, 0], [39.704492, 48.706805, 0], [39.713158, 48.700835, 0], [39.717876, 48.703361, 0], [39.720211, 48.697203, 0], [39.715965, 48.695208, 0], [39.718827, 48.693317, 0], [39.716681, 48.689934, 0], [39.718497, 48.687429, 0], [39.720602, 48.686758, 0], [39.720778, 48.68633, 0], [39.722675, 48.685055, 0], [39.723203, 48.684077, 0], [39.723065, 48.683447, 0], [39.722682, 48.683376, 0], [39.721615, 48.682426, 0], [39.720341, 48.681944, 0], [39.717084, 48.68144, 0], [39.714196, 48.680225, 0], [39.713498, 48.676128, 0], [39.712113, 48.674652, 0], [39.707944, 48.672792, 0], [39.704033, 48.671485, 0], [39.702434, 48.670515, 0], [39.701721, 48.669404, 0], [39.702477, 48.668435, 0], [39.702902, 48.667225, 0], [39.703293, 48.666837, 0], [39.70426, 48.666623, 0], [39.705013, 48.666918, 0], [39.707323, 48.666964, 0], [39.708822, 48.667758, 0], [39.710291, 48.668063, 0], [39.710944, 48.667694, 0], [39.711308, 48.667218, 0], [39.71073, 48.663944, 0], [39.709526, 48.662254, 0], [39.709721, 48.660882, 0], [39.709655, 48.660003, 0], [39.710408, 48.658063, 0], [39.711381, 48.656876, 0], [39.71098, 48.655517, 0], [39.710687, 48.655037, 0], [39.709877, 48.654545, 0], [39.708981, 48.654618, 0], [39.706436, 48.656973, 0], [39.705011, 48.65635, 0], [39.704363, 48.655147, 0], [39.703291, 48.654341, 0], [39.70227, 48.653309, 0], [39.699904, 48.652604, 0], [39.697354, 48.65103, 0], [39.693715, 48.649408, 0], [39.691241, 48.646322, 0], [39.69153, 48.644962, 0], [39.69377, 48.643208, 0], [39.694362, 48.639673, 0], [39.69424, 48.637614, 0], [39.693784, 48.636771, 0], [39.693161, 48.636238, 0], [39.690642, 48.635483, 0], [39.687768, 48.632823, 0], [39.680063, 48.629498, 0], [39.671535, 48.624331, 0], [39.666873, 48.620065, 0], [39.66617, 48.617721, 0], [39.663798, 48.613004, 0], [39.661447, 48.610904, 0], [39.660623, 48.60909, 0], [39.661023, 48.606551, 0], [39.663374, 48.604922, 0], [39.667113, 48.605231, 0], [39.668912, 48.605036, 0], [39.670576, 48.604588, 0], [39.671189, 48.603954, 0], [39.670944, 48.603218, 0], [39.668158, 48.601311, 0], [39.668176, 48.598181, 0], [39.668806, 48.596567, 0], [39.670062, 48.595773, 0], [39.671427, 48.595451, 0], [39.673529, 48.595905, 0], [39.675274, 48.59694, 0], [39.676001, 48.59795, 0], [39.677049, 48.598311, 0], [39.678671, 48.59812, 0], [39.680041, 48.597382, 0], [39.680608, 48.596402, 0], [39.679654, 48.595476, 0], [39.678178, 48.59586, 0], [39.676018, 48.594721, 0], [39.675418, 48.593542, 0], [39.675839, 48.591785, 0], [39.676478, 48.590863, 0], [39.678799, 48.590094, 0], [39.679467, 48.590602, 0], [39.679362, 48.591808, 0], [39.680952, 48.592636, 0], [39.682672, 48.592689, 0], [39.687101, 48.589208, 0], [39.687271, 48.587084, 0], [39.67729, 48.587565, 0], [39.676518, 48.58819, 0], [39.672226, 48.588417, 0], [39.667591, 48.58677, 0], [39.65875, 48.585635, 0], [39.657549, 48.58467, 0], [39.635319, 48.580042, 0], [39.631972, 48.580695, 0], [39.623646, 48.586089, 0], [39.62283, 48.586373, 0], [39.621929, 48.585805, 0], [39.621242, 48.581944, 0], [39.617552, 48.577118, 0], [39.613732, 48.574903, 0], [39.612488, 48.572915, 0], [39.608024, 48.572716, 0], [39.603647, 48.574108, 0], [39.596315, 48.575032, 0], [39.594991, 48.576694, 0], [39.594807, 48.579332, 0], [39.600643, 48.585748, 0], [39.604076, 48.58626, 0], [39.60502, 48.58677, 0], [39.604591, 48.588814, 0], [39.601759, 48.591539, 0], [39.596352, 48.592391, 0], [39.592538, 48.591299, 0], [39.581773, 48.585041, 0], [39.577782, 48.582883, 0], [39.576537, 48.581236, 0], [39.573349, 48.580525, 0], [39.568074, 48.581852, 0], [39.56297, 48.583634, 0], [39.563148, 48.586233, 0], [39.566053, 48.588303, 0], [39.567279, 48.590241, 0], [39.567304, 48.592122, 0], [39.565637, 48.593954, 0], [39.563307, 48.597443, 0], [39.561762, 48.598011, 0], [39.558672, 48.598011, 0], [39.551204, 48.59557, 0], [39.549488, 48.593242, 0], [39.550561, 48.588587, 0], [39.549316, 48.585976, 0], [39.545025, 48.583932, 0], [39.537386, 48.583392, 0], [39.531206, 48.584272, 0], [39.528717, 48.585947, 0], [39.526914, 48.589552, 0], [39.528133, 48.591843, 0], [39.53321, 48.593633, 0], [39.53359, 48.595463, 0], [39.532425, 48.596441, 0], [39.528048, 48.597179, 0], [39.525387, 48.598201, 0], [39.522636, 48.602979, 0], [39.523481, 48.605106, 0], [39.527282, 48.608277, 0], [39.527822, 48.609462, 0], [39.527184, 48.611265, 0], [39.525725, 48.613024, 0], [39.516786, 48.618101, 0], [39.511649, 48.621876, 0], [39.51198, 48.623548, 0], [39.515426, 48.626188, 0], [39.516271, 48.627973, 0], [39.516713, 48.629989, 0], [39.516026, 48.632201, 0], [39.51409, 48.633839, 0], [39.510436, 48.634456, 0], [39.500437, 48.632556, 0], [39.495545, 48.632131, 0], [39.493013, 48.630429, 0], [39.486275, 48.628897, 0], [39.484151, 48.628202, 0], [39.476104, 48.628755, 0], [39.468594, 48.627451, 0], [39.465633, 48.628188, 0], [39.464013, 48.631066, 0], [39.46427, 48.634016, 0], [39.467392, 48.637236, 0], [39.465815, 48.638667, 0], [39.457564, 48.638654, 0], [39.454217, 48.639788, 0], [39.451642, 48.641036, 0], [39.449577, 48.64456, 0], [39.4498, 48.650403, 0], [39.45131, 48.65171, 0], [39.453387, 48.652815, 0], [39.452375, 48.654713, 0], [39.450178, 48.655674, 0], [39.446504, 48.656303, 0], [39.43895, 48.654942, 0], [39.432325, 48.656751, 0], [39.420748, 48.658225, 0], [39.414234, 48.656694, 0], [39.410696, 48.657658, 0], [39.408035, 48.659813, 0], [39.408207, 48.661457, 0], [39.413528, 48.666842, 0], [39.413872, 48.668429, 0], [39.411726, 48.670527, 0], [39.405823, 48.673814, 0], [39.402647, 48.674437, 0], [39.397993, 48.674608, 0], [39.390526, 48.678801, 0], [39.389172, 48.680388, 0], [39.390931, 48.68376, 0], [39.389601, 48.684752, 0], [39.381705, 48.685516, 0], [39.379559, 48.686281, 0], [39.377988, 48.686239, 0], [39.367319, 48.691976, 0], [39.365892, 48.692231, 0], [39.360313, 48.6958, 0], [39.355955, 48.697216, 0], [39.350505, 48.707639, 0], [39.34866, 48.708715, 0], [39.346857, 48.712227, 0], [39.34864, 48.713473, 0], [39.354134, 48.713246, 0], [39.360161, 48.715681, 0], [39.365268, 48.716842, 0], [39.370461, 48.715964, 0], [39.372082, 48.715936, 0], [39.373789, 48.717494, 0], [39.374185, 48.718655, 0], [39.372606, 48.719872, 0], [39.36913, 48.72007, 0], [39.361534, 48.722307, 0], [39.355226, 48.725251, 0], [39.353724, 48.726893, 0], [39.354075, 48.729648, 0], [39.357078, 48.732309, 0], [39.358877, 48.733904, 0], [39.358874, 48.736178, 0], [39.358194, 48.737008, 0], [39.349268, 48.742498, 0], [39.347208, 48.745781, 0], [39.347029, 48.750214, 0], [39.346178, 48.751044, 0], [39.343141, 48.757363, 0], [39.343365, 48.759212, 0], [39.34553, 48.761663, 0], [39.349175, 48.762154, 0], [39.351328, 48.763097, 0], [39.353895, 48.765492, 0], [39.354504, 48.766831, 0], [39.352783, 48.767944, 0], [39.351063, 48.768547, 0], [39.347245, 48.768387, 0], [39.340338, 48.766303, 0], [39.336136, 48.765982, 0], [39.331673, 48.766604, 0], [39.326605, 48.768311, 0], [39.326086, 48.770018, 0], [39.327485, 48.772111, 0], [39.327974, 48.773695, 0], [39.326258, 48.775561, 0], [39.324549, 48.776051, 0], [39.314592, 48.774807, 0], [39.311846, 48.774072, 0], [39.308834, 48.771998, 0], [39.303091, 48.765416, 0], [39.299915, 48.76304, 0], [39.29262, 48.760607, 0], [39.291496, 48.759438, 0], [39.290645, 48.75625, 0], [39.289283, 48.753686, 0], [39.289522, 48.751516, 0], [39.286436, 48.748903, 0], [39.282062, 48.748611, 0], [39.27889, 48.749341, 0], [39.276661, 48.752336, 0], [39.274778, 48.753683, 0], [39.272385, 48.753889, 0], [39.270811, 48.752761, 0], [39.270304, 48.751214, 0], [39.271677, 48.747762, 0], [39.270811, 48.743989, 0], [39.268665, 48.741951, 0], [39.26447, 48.741255, 0], [39.258537, 48.742744, 0], [39.256313, 48.742272, 0], [39.255026, 48.740687, 0], [39.255284, 48.738776, 0], [39.259231, 48.733838, 0], [39.256141, 48.726874, 0], [39.253965, 48.724404, 0], [39.253309, 48.722061, 0], [39.253902, 48.720155, 0], [39.249782, 48.712567, 0], [39.243517, 48.709622, 0], [39.23959, 48.709127, 0], [39.235993, 48.71109, 0], [39.232366, 48.711415, 0], [39.226787, 48.708979, 0], [39.224899, 48.70677, 0], [39.219406, 48.705184, 0], [39.212539, 48.70122, 0], [39.207175, 48.698302, 0], [39.203184, 48.698614, 0], [39.200373, 48.700002, 0], [39.19915, 48.702267, 0], [39.198356, 48.705779, 0], [39.197519, 48.706487, 0], [39.19651, 48.706516, 0], [39.195108, 48.703901, 0], [39.190902, 48.699822, 0], [39.185417, 48.693401, 0], [39.18164, 48.685752, 0], [39.174251, 48.680331, 0], [39.163351, 48.675741, 0], [39.157436, 48.675382, 0], [39.151943, 48.676288, 0], [39.148674, 48.675287, 0], [39.144514, 48.670914, 0], [39.141901, 48.666653, 0], [39.141643, 48.665066, 0], [39.142673, 48.663535, 0], [39.141986, 48.66087, 0], [39.13949, 48.659642, 0], [39.127309, 48.660474, 0], [39.123189, 48.66002, 0], [39.11683, 48.656751, 0], [39.111938, 48.653349, 0], [39.10362, 48.649871, 0], [39.098556, 48.650892, 0], [39.084909, 48.650665, 0], [39.075897, 48.651629, 0], [39.074352, 48.650438, 0], [39.054868, 48.647036, 0], [39.04268, 48.646468, 0], [39.038084, 48.647187, 0], [39.035548, 48.648245, 0], [39.03345, 48.651978, 0], [39.032209, 48.652876, 0], [39.02851, 48.653009, 0], [39.019155, 48.656978, 0], [39.012374, 48.658338, 0], [39.010318, 48.660086, 0], [39.009635, 48.662628, 0], [39.012982, 48.664045, 0], [39.018562, 48.664102, 0], [39.021652, 48.662401, 0], [39.025428, 48.661976, 0], [39.027488, 48.663251, 0], [39.026286, 48.667276, 0], [39.023883, 48.669884, 0], [39.020536, 48.672264, 0], [39.020278, 48.675608, 0], [39.019584, 48.679141, 0], [39.016369, 48.680945, 0], [39.014356, 48.683429, 0], [39.015729, 48.688642, 0], [39.01555, 48.694894, 0], [39.004829, 48.696347, 0], [39.001817, 48.698009, 0], [38.99985, 48.7002, 0], [38.999507, 48.703995, 0], [38.99822, 48.707677, 0], [38.998988, 48.711198, 0], [38.996925, 48.711604, 0], [38.991925, 48.710004, 0], [38.986925, 48.71016, 0], [38.984308, 48.71183, 0], [38.984744, 48.713624, 0], [38.988864, 48.715209, 0], [38.993921, 48.716191, 0], [38.998048, 48.717474, 0], [38.999335, 48.719626, 0], [38.998391, 48.724269, 0], [38.991439, 48.730611, 0], [38.989543, 48.734989, 0], [38.984458, 48.737582, 0], [38.982205, 48.740288, 0], [38.982334, 48.742192, 0], [38.981218, 48.743847, 0], [38.978814, 48.744894, 0], [38.974999, 48.744765, 0], [38.972565, 48.743586, 0], [38.969834, 48.743749, 0], [38.966948, 48.745206, 0], [38.964095, 48.746196, 0], [38.961133, 48.74614, 0], [38.959932, 48.742913, 0], [38.961219, 48.739913, 0], [38.961048, 48.736517, 0], [38.956948, 48.734069, 0], [38.94607, 48.734451, 0], [38.94371, 48.733856, 0], [38.934011, 48.735781, 0], [38.932466, 48.7368, 0], [38.934354, 48.742913, 0], [38.937959, 48.744074, 0], [38.93886, 48.745814, 0], [38.938281, 48.746684, 0], [38.936961, 48.747119, 0], [38.935057, 48.746856, 0], [38.933667, 48.746026, 0], [38.930652, 48.745276, 0], [38.924633, 48.745036, 0], [38.922724, 48.745008, 0], [38.921308, 48.744611, 0], [38.919969, 48.743423, 0], [38.91803, 48.742914, 0], [38.914323, 48.744385, 0], [38.912575, 48.746875, 0], [38.911137, 48.748007, 0], [38.908777, 48.749252, 0], [38.904742, 48.75061, 0], [38.901094, 48.750908, 0], [38.89882, 48.750186, 0], [38.892039, 48.750441, 0], [38.881332, 48.750186, 0], [38.880238, 48.750611, 0], [38.879079, 48.752478, 0], [38.87762, 48.752591, 0], [38.871695, 48.751308, 0], [38.863881, 48.751382, 0], [38.860958, 48.750738, 0], [38.860604, 48.74979, 0], [38.85938, 48.749592, 0], [38.85539, 48.749648, 0], [38.84715, 48.742913, 0], [38.836078, 48.723269, 0], [38.83007, 48.71704, 0], [38.80844, 48.713416, 0], [38.76707, 48.714322, 0], [38.753516, 48.718494, 0], [38.691716, 48.729363, 0], [38.705556, 48.775461, 0], [38.55969, 48.830068, 0]]]}}, {"type": "Feature", "properties": {"name": "\u041e\u043a\u0443\u043f\u043e\u0432\u0430\u043d\u043e /// Occupied", "date": "2023-04-30"}, "geometry": {"type": "Polygon", "coordinates": [[[37.68785, 48.054754, 0], [37.67946, 48.049407, 0], [37.669986, 48.043363, 0], [37.64781, 48.028944, 0], [37.622662, 48.019444, 0], [37.616482, 48.018095, 0], [37.601376, 48.016946, 0], [37.588566, 48.016021, 0], [37.575434, 48.013954, 0], [37.573394, 48.006899, 0], [37.556143, 48.009855, 0], [37.549621, 47.997364, 0], [37.558546, 47.986451, 0], [37.548482, 47.979262, 0], [37.548226, 47.986444, 0], [37.543162, 47.995432, 0], [37.543246, 47.998348, 0], [37.548288, 48.0072, 0], [37.558525, 48.014097, 0], [37.570798, 48.014241, 0], [37.573459, 48.032381, 0], [37.581109, 48.034379, 0], [37.580519, 48.037697, 0], [37.584727, 48.038206, 0], [37.5841542, 48.0428368, 0], [37.5890879, 48.0439315, 0], [37.590454, 48.048498, 0], [37.59176, 48.052975, 0], [37.591104, 48.054188, 0], [37.590363, 48.054554, 0], [37.587238, 48.053942, 0], [37.587981, 48.0613, 0], [37.5929, 48.061593, 0], [37.603714, 48.061908, 0], [37.610544, 48.063785, 0], [37.610876, 48.067349, 0], [37.61158, 48.06978, 0], [37.615838, 48.069792, 0], [37.61958, 48.065272, 0], [37.630696, 48.062885, 0], [37.641518, 48.066091, 0], [37.638338, 48.071395, 0], [37.636078, 48.072311, 0], [37.636965, 48.074346, 0], [37.633346, 48.075951, 0], [37.641316, 48.081249, 0], [37.638986, 48.088925, 0], [37.63171, 48.099192, 0], [37.62641, 48.100105, 0], [37.616716, 48.101852, 0], [37.61552, 48.104745, 0], [37.626946, 48.104342, 0], [37.636015, 48.104832, 0], [37.640346, 48.10942, 0], [37.647767, 48.109653, 0], [37.660629, 48.111027, 0], [37.660408, 48.112717, 0], [37.661928, 48.112961, 0], [37.662848, 48.111427, 0], [37.683171, 48.113396, 0], [37.687382, 48.103776, 0], [37.692063, 48.103723, 0], [37.693353, 48.102609, 0], [37.696379, 48.099358, 0], [37.702322, 48.099746, 0], [37.709928, 48.100565, 0], [37.713323, 48.100644, 0], [37.71347, 48.104686, 0], [37.717004, 48.111087, 0], [37.725745, 48.112554, 0], [37.730343, 48.098467, 0], [37.732821, 48.091598, 0], [37.740105, 48.091006, 0], [37.746479, 48.09097, 0], [37.765242, 48.091688, 0], [37.76653, 48.101032, 0], [37.76962, 48.104127, 0], [37.779662, 48.105846, 0], [37.790173, 48.110862, 0], [37.791622, 48.112445, 0], [37.796162, 48.11397, 0], [37.8002, 48.114966, 0], [37.792021, 48.104528, 0], [37.789283, 48.100177, 0], [37.773053, 48.092032, 0], [37.756436, 48.08667, 0], [37.746306, 48.073475, 0], [37.742788, 48.072751, 0], [37.699702, 48.072204, 0], [37.693049, 48.069307, 0], [37.687749, 48.061894, 0], [37.694294, 48.056545, 0], [37.691199, 48.053406, 0], [37.68785, 48.054754, 0]]]}}, {"type": "Feature", "properties": {"name": "\u041e\u043a\u0443\u043f\u043e\u0432\u0430\u043d\u0438\u0439 \u041a\u0440\u0438\u043c /// Occupied Crimea", "date": "2023-04-30"}, "geometry": {"type": "Polygon", "coordinates": [[[35.201458, 45.523343, 0], [35.311256, 45.411424, 0], [35.382064, 45.352514, 0], [35.467835, 45.307544, 0], [35.498759, 45.306176, 0], [35.525825, 45.291193, 0], [35.632903, 45.324584, 0], [35.71557, 45.338458, 0], [35.724851, 45.351594, 0], [35.753728, 45.366548, 0], [35.760985, 45.381258, 0], [35.748889, 45.384633, 0], [35.745726, 45.39066, 0], [35.748929, 45.396331, 0], [35.802358, 45.424293, 0], [35.826475, 45.440129, 0], [35.818368, 45.451418, 0], [35.817747, 45.458869, 0], [35.823649, 45.46632, 0], [35.841775, 45.474473, 0], [35.867831, 45.473251, 0], [35.87606, 45.463856, 0], [35.86369, 45.45422, 0], [35.846507, 45.446506, 0], [35.886842, 45.407774, 0], [35.941221, 45.380044, 0], [35.99701, 45.371491, 0], [36.04285, 45.384009, 0], [36.068942, 45.404374, 0], [36.068785, 45.445463, 0], [36.12387, 45.463618, 0], [36.17039, 45.472361, 0], [36.265345, 45.478566, 0], [36.293683, 45.483861, 0], [36.307976, 45.475414, 0], [36.322868, 45.471297, 0], [36.336302, 45.474221, 0], [36.340048, 45.477585, 0], [36.33933, 45.482513, 0], [36.344848, 45.484307, 0], [36.345514, 45.480891, 0], [36.357563, 45.471617, 0], [36.372894, 45.47138, 0], [36.376602, 45.463689, 0], [36.40184, 45.450177, 0], [36.415458, 45.446825, 0], [36.421423, 45.446002, 0], [36.432474, 45.447875, 0], [36.43401, 45.450676, 0], [36.442064, 45.453282, 0], [36.441535, 45.455406, 0], [36.447174, 45.460135, 0], [36.461093, 45.456435, 0], [36.470548, 45.458514, 0], [36.482062, 45.455771, 0], [36.495456, 45.450514, 0], [36.499746, 45.445484, 0], [36.506954, 45.44226, 0], [36.518828, 45.433521, 0], [36.532672, 45.42719, 0], [36.547831, 45.425611, 0], [36.554467, 45.424368, 0], [36.56594, 45.428443, 0], [36.565672, 45.436625, 0], [36.57528, 45.442252, 0], [36.587036, 45.44127, 0], [36.598276, 45.438662, 0], [36.606346, 45.42872, 0], [36.61553, 45.422271, 0], [36.611498, 45.414921, 0], [36.607593, 45.412573, 0], [36.611273, 45.407542, 0], [36.634642, 45.391737, 0], [36.641199, 45.390666, 0], [36.648733, 45.38292, 0], [36.643211, 45.377813, 0], [36.6335, 45.375653, 0], [36.630106, 45.373786, 0], [36.633217, 45.362811, 0], [36.630569, 45.360521, 0], [36.625643, 45.360763, 0], [36.612025, 45.355938, 0], [36.60599, 45.347733, 0], [36.596554, 45.345031, 0], [36.592338, 45.3465, 0], [36.564437, 45.347114, 0], [36.54435, 45.344735, 0], [36.534981, 45.345637, 0], [36.535225, 45.349918, 0], [36.518286, 45.351539, 0], [36.483644, 45.350864, 0], [36.477812, 45.349132, 0], [36.472041, 45.341233, 0], [36.47329, 45.330744, 0], [36.488837, 45.324608, 0], [36.499502, 45.318675, 0], [36.484438, 45.305478, 0], [36.435179, 45.295073, 0], [36.421663, 45.286584, 0], [36.426012, 45.27864, 0], [36.436333, 45.276239, 0], [36.43962, 45.271622, 0], [36.435783, 45.258066, 0], [36.423707, 45.245262, 0], [36.423049, 45.23723, 0], [36.412019, 45.225877, 0], [36.403912, 45.214162, 0], [36.407734, 45.193404, 0], [36.407778, 45.172889, 0], [36.417779, 45.164294, 0], [36.421428, 45.152916, 0], [36.422542, 45.136938, 0], [36.4258, 45.134402, 0], [36.425628, 45.128893, 0], [36.43318, 45.117691, 0], [36.439699, 45.116727, 0], [36.454606, 45.105555, 0], [36.456018, 45.095623, 0], [36.440096, 45.083327, 0], [36.390978, 45.065359, 0], [36.372884, 45.057475, 0], [36.337724, 45.058302, 0], [36.309329, 45.057922, 0], [36.282137, 45.05499, 0], [36.249153, 45.047687, 0], [36.24793, 45.04068, 0], [36.225684, 45.026816, 0], [36.213493, 45.02807, 0], [36.201045, 45.033023, 0], [36.160037, 45.035925, 0], [36.07129, 45.048252, 0], [36.035405, 45.049216, 0], [36.012561, 45.044932, 0], [35.994952, 45.03511, 0], [35.984215, 45.022859, 0], [35.954083, 45.011219, 0], [35.925851, 45.019111, 0], [35.907658, 45.018079, 0], [35.900286, 45.014189, 0], [35.879342, 45.009765, 0], [35.870587, 45.004186, 0], [35.842096, 44.998366, 0], [35.834801, 44.999213, 0], [35.828278, 45.004552, 0], [35.834113, 45.0091, 0], [35.82978, 45.014076, 0], [35.821947, 45.019203, 0], [35.810165, 45.021418, 0], [35.814483, 45.033306, 0], [35.804886, 45.045558, 0], [35.785327, 45.057628, 0], [35.777878, 45.066304, 0], [35.748793, 45.081465, 0], [35.692135, 45.104626, 0], [35.62977, 45.122303, 0], [35.58496, 45.129359, 0], [35.541346, 45.125861, 0], [35.451063, 45.097366, 0], [35.414638, 45.07541, 0], [35.389399, 45.049444, 0], [35.385966, 45.035246, 0], [35.412652, 45.025778, 0], [35.428693, 45.012912, 0], [35.395224, 44.999343, 0], [35.366739, 44.992559, 0], [35.358416, 44.985552, 0], [35.356103, 44.97733, 0], [35.394038, 44.954933, 0], [35.382973, 44.943891, 0], [35.351803, 44.954952, 0], [35.344315, 44.964188, 0], [35.322466, 44.95921, 0], [35.322807, 44.966441, 0], [35.301518, 44.965776, 0], [35.294987, 44.959711, 0], [35.283641, 44.96616, 0], [35.271282, 44.967596, 0], [35.258409, 44.960904, 0], [35.249825, 44.952823, 0], [35.25652, 44.938423, 0], [35.243653, 44.916792, 0], [35.216612, 44.909005, 0], [35.205602, 44.910216, 0], [35.190556, 44.907887, 0], [35.177573, 44.900936, 0], [35.169311, 44.900247, 0], [35.156245, 44.886911, 0], [35.144155, 44.867002, 0], [35.139391, 44.861252, 0], [35.130569, 44.829311, 0], [35.133101, 44.822812, 0], [35.118455, 44.81723, 0], [35.111022, 44.80702, 0], [35.09398, 44.801375, 0], [35.081062, 44.790612, 0], [35.064425, 44.797108, 0], [35.043666, 44.799459, 0], [35.047274, 44.814837, 0], [35.029503, 44.828249, 0], [35.0007, 44.83203, 0], [34.988701, 44.828075, 0], [34.980991, 44.834465, 0], [34.967823, 44.838027, 0], [34.942529, 44.833842, 0], [34.935034, 44.830042, 0], [34.920988, 44.828751, 0], [34.920318, 44.82153, 0], [34.912095, 44.81577, 0], [34.845166, 44.813296, 0], [34.830931, 44.816908, 0], [34.763731, 44.815057, 0], [34.747987, 44.807058, 0], [34.728811, 44.807825, 0], [34.677858, 44.787856, 0], [34.625628, 44.773956, 0], [34.544614, 44.741006, 0], [34.474964, 44.715071, 0], [34.432149, 44.682765, 0], [34.412176, 44.658807, 0], [34.403924, 44.639751, 0], [34.389678, 44.628884, 0], [34.38342, 44.615877, 0], [34.377892, 44.612309, 0], [34.375816, 44.591703, 0], [34.354354, 44.585681, 0], [34.349805, 44.57185, 0], [34.349035, 44.546767, 0], [34.334843, 44.545507, 0], [34.320135, 44.551094, 0], [34.308946, 44.552088, 0], [34.260362, 44.507556, 0], [34.171984, 44.491011, 0], [34.128936, 44.427878, 0], [34.057232, 44.416521, 0], [34.034986, 44.403674, 0], [33.963406, 44.38885, 0], [33.939412, 44.389646, 0], [33.882423, 44.400268, 0], [33.846027, 44.401142, 0], [33.778737, 44.381452, 0], [33.759005, 44.386932, 0], [33.733092, 44.383332, 0], [33.702892, 44.416926, 0], [33.673869, 44.412807, 0], [33.64553, 44.421924, 0], [33.63834, 44.458687, 0], [33.627013, 44.479579, 0], [33.601948, 44.491739, 0], [33.554048, 44.486877, 0], [33.506071, 44.500846, 0], [33.486243, 44.494968, 0], [33.472733, 44.511135, 0], [33.46013, 44.522891, 0], [33.403694, 44.553239, 0], [33.373305, 44.584056, 0], [33.450155, 44.615946, 0], [33.494615, 44.617766, 0], [33.508271, 44.631916, 0], [33.512474, 44.633149, 0], [33.52105, 44.640258, 0], [33.525691, 44.638362, 0], [33.531191, 44.641107, 0], [33.535667, 44.64599, 0], [33.541864, 44.658932, 0], [33.546363, 44.677979, 0], [33.547442, 44.698563, 0], [33.545774, 44.707798, 0], [33.547583, 44.724445, 0], [33.539777, 44.744321, 0], [33.540722, 44.761758, 0], [33.533513, 44.792608, 0], [33.540633, 44.802652, 0], [33.54552, 44.80417, 0], [33.547143, 44.81013, 0], [33.549545, 44.810828, 0], [33.550231, 44.822242, 0], [33.548513, 44.834598, 0], [33.55297, 44.841655, 0], [33.556915, 44.840587, 0], [33.561031, 44.842318, 0], [33.569694, 44.838843, 0], [33.578964, 44.840487, 0], [33.586864, 44.847, 0], [33.590643, 44.845722, 0], [33.594636, 44.847578, 0], [33.600863, 44.857663, 0], [33.6052, 44.866386, 0], [33.606448, 44.871702, 0], [33.610592, 44.899319, 0], [33.610962, 44.925721, 0], [33.597652, 44.97655, 0], [33.604377, 44.980471, 0], [33.602595, 44.997973, 0], [33.58086, 45.050881, 0], [33.56149, 45.081073, 0], [33.536378, 45.109551, 0], [33.509265, 45.13445, 0], [33.480757, 45.155892, 0], [33.450854, 45.174238, 0], [33.432652, 45.184093, 0], [33.415989, 45.191404, 0], [33.408547, 45.193444, 0], [33.400771, 45.196065, 0], [33.391196, 45.197375, 0], [33.38275, 45.196471, 0], [33.376436, 45.191845, 0], [33.376286, 45.18766, 0], [33.380282, 45.185909, 0], [33.37497, 45.183679, 0], [33.358429, 45.178252, 0], [33.350015, 45.173699, 0], [33.331548, 45.171883, 0], [33.325143, 45.174125, 0], [33.318394, 45.174581, 0], [33.310057, 45.1741, 0], [33.305239, 45.17277, 0], [33.301221, 45.170642, 0], [33.298963, 45.167787, 0], [33.29792, 45.165633, 0], [33.300138, 45.162027, 0], [33.296035, 45.157719, 0], [33.288293, 45.154105, 0], [33.284289, 45.148276, 0], [33.27516, 45.145901, 0], [33.268036, 45.145629, 0], [33.257295, 45.147804, 0], [33.245939, 45.156938, 0], [33.234348, 45.168219, 0], [33.225292, 45.174695, 0], [33.201984, 45.183225, 0], [33.185236, 45.183717, 0], [33.179821, 45.187651, 0], [33.165826, 45.19347, 0], [33.157326, 45.198774, 0], [33.148825, 45.202143, 0], [33.143404, 45.20709, 0], [33.138912, 45.216317, 0], [33.124087, 45.225712, 0], [33.107907, 45.23151, 0], [33.093199, 45.248834, 0], [33.081231, 45.258421, 0], [33.062776, 45.27566, 0], [33.035244, 45.29016, 0], [32.991848, 45.322499, 0], [32.966765, 45.336694, 0], [32.907019, 45.359436, 0], [32.84671, 45.365264, 0], [32.76522, 45.363836, 0], [32.735393, 45.354972, 0], [32.712159, 45.341307, 0], [32.685502, 45.332102, 0], [32.675688, 45.320614, 0], [32.65299, 45.313322, 0], [32.622109, 45.317634, 0], [32.599462, 45.325318, 0], [32.578538, 45.327642, 0], [32.569816, 45.332888, 0], [32.551846, 45.332385, 0], [32.489453, 45.346136, 0], [32.510377, 45.360884, 0], [32.513458, 45.372038, 0], [32.507445, 45.381957, 0], [32.488644, 45.384988, 0], [32.478939, 45.389163, 0], [32.479703, 45.404263, 0], [32.48807, 45.407956, 0], [32.500388, 45.424663, 0], [32.524271, 45.438872, 0], [32.538208, 45.454884, 0], [32.562144, 45.470223, 0], [32.59058, 45.48558, 0], [32.691784, 45.523882, 0], [32.72322, 45.533026, 0], [32.736877, 45.543007, 0], [32.772105, 45.557869, 0], [32.793178, 45.56389, 0], [32.820317, 45.559825, 0], [32.825974, 45.55733, 0], [32.833962, 45.560234, 0], [32.840648, 45.56511, 0], [32.843141, 45.570597, 0], [32.843556, 45.576834, 0], [32.841008, 45.582406, 0], [32.837291, 45.583354, 0], [32.829252, 45.583603, 0], [32.821299, 45.58301, 0], [32.820129, 45.584393, 0], [32.820181, 45.586841, 0], [32.82504, 45.590611, 0], [32.908691, 45.640338, 0], [32.999393, 45.681147, 0], [33.006337, 45.679383, 0], [33.017154, 45.687009, 0], [33.050144, 45.696959, 0], [33.0691, 45.706833, 0], [33.077681, 45.707393, 0], [33.095704, 45.715503, 0], [33.114638, 45.712775, 0], [33.127908, 45.719842, 0], [33.1378, 45.719814, 0], [33.152919, 45.733355, 0], [33.159184, 45.749182, 0], [33.165737, 45.78827, 0], [33.175838, 45.805742, 0], [33.182338, 45.80993, 0], [33.185831, 45.807952, 0], [33.180625, 45.797211, 0], [33.172486, 45.786603, 0], [33.182114, 45.773902, 0], [33.21192, 45.757728, 0], [33.23866, 45.752804, 0], [33.280613, 45.76267, 0], [33.32241, 45.775037, 0], [33.373494, 45.797187, 0], [33.41709, 45.830205, 0], [33.432207, 45.838576, 0], [33.482974, 45.854396, 0], [33.517951, 45.867777, 0], [33.540593, 45.884913, 0], [33.544102, 45.880335, 0], [33.520062, 45.857708, 0], [33.50089, 45.848355, 0], [33.507622, 45.841072, 0], [33.517655, 45.846594, 0], [33.527171, 45.849723, 0], [33.537116, 45.845796, 0], [33.542129, 45.840258, 0], [33.548213, 45.843531, 0], [33.551715, 45.851628, 0], [33.55864, 45.86172, 0], [33.568716, 45.874008, 0], [33.581653, 45.871206, 0], [33.593725, 45.885292, 0], [33.616272, 45.892143, 0], [33.634096, 45.882614, 0], [33.642234, 45.876325, 0], [33.654663, 45.875233, 0], [33.662233, 45.871524, 0], [33.661598, 45.86426, 0], [33.674126, 45.857432, 0], [33.684191, 45.850098, 0], [33.684716, 45.858888, 0], [33.679077, 45.867314, 0], [33.679953, 45.875048, 0], [33.678367, 45.885139, 0], [33.675115, 45.898868, 0], [33.676214, 45.903954, 0], [33.680094, 45.90854, 0], [33.687773, 45.912752, 0], [33.691971, 45.913471, 0], [33.697545, 45.911367, 0], [33.701995, 45.911004, 0], [33.720244, 45.924636, 0], [33.730928, 45.930188, 0], [33.749506, 45.928276, 0], [33.756027, 45.931109, 0], [33.757987, 45.934494, 0], [33.755784, 45.939282, 0], [33.751076, 45.9488, 0], [33.747278, 45.946685, 0], [33.744939, 45.95033, 0], [33.722964, 45.950158, 0], [33.692314, 45.95526, 0], [33.682856, 45.952803, 0], [33.659761, 45.954586, 0], [33.640135, 45.949356, 0], [33.647501, 45.945166, 0], [33.642079, 45.942885, 0], [33.634992, 45.941326, 0], [33.624497, 45.942516, 0], [33.617606, 45.944243, 0], [33.616479, 45.949068, 0], [33.627758, 45.958848, 0], [33.629688, 45.967426, 0], [33.629384, 45.977458, 0], [33.628543, 45.987604, 0], [33.622873, 45.997617, 0], [33.618724, 46.01252, 0], [33.611338, 46.054819, 0], [33.623699, 46.071722, 0], [33.637282, 46.081351, 0], [33.633038, 46.097381, 0], [33.616561, 46.11536, 0], [33.612957, 46.129148, 0], [33.612528, 46.138238, 0], [33.60668, 46.146878, 0], [33.6897, 46.204334, 0], [33.714554, 46.196894, 0], [33.740532, 46.185128, 0], [33.82395, 46.187069, 0], [34.038334, 46.116935, 0], [34.122582, 46.108122, 0], [34.160772, 46.08043, 0], [34.227754, 46.060816, 0], [34.382464, 46.034692, 0], [34.436726, 45.968164, 0], [34.478552, 45.946947, 0], [34.556042, 45.988691, 0], [34.651415, 45.973908, 0], [34.700883, 45.959179, 0], [34.752716, 45.910231, 0], [34.782879, 45.904975, 0], [34.796134, 45.892053, 0], [34.800881, 45.804735, 0], [34.949344, 45.762936, 0], [34.958219, 45.760037, 0], [34.977053, 45.765285, 0], [35.050056, 45.667202, 0], [35.109867, 45.599025, 0], [35.201458, 45.523343, 0]]]}}, {"type": "Feature", "properties": {"name": "\u041e\u043a\u0443\u043f\u043e\u0432\u0430\u043d\u043e /// Occupied", "date": "2023-04-30"}, "geometry": {"type": "Polygon", "coordinates": [[[35.252517, 46.250571, 0], [35.298987, 46.298978, 0], [35.293277, 46.302449, 0], [35.292586, 46.307996, 0], [35.298805, 46.314937, 0], [35.317442, 46.317038, 0], [35.316516, 46.330714, 0], [35.31792, 46.337833, 0], [35.314264, 46.343757, 0], [35.307895, 46.348289, 0], [35.304169, 46.353872, 0], [35.289804, 46.356552, 0], [35.269099, 46.35539, 0], [35.265416, 46.352326, 0], [35.26147, 46.365877, 0], [35.25675, 46.375283, 0], [35.201794, 46.379714, 0], [35.193173, 46.370922, 0], [35.178357, 46.362919, 0], [35.138002, 46.348253, 0], [35.11777, 46.314243, 0], [35.079863, 46.276637, 0], [35.024814, 46.256304, 0], [34.903004, 46.23639, 0], [34.833783, 46.200133, 0], [34.834641, 46.11553, 0], [34.852474, 46.009218, 0], [34.895964, 45.898811, 0], [34.977053, 45.765285, 0], [34.958219, 45.760037, 0], [34.800881, 45.804735, 0], [34.796134, 45.892053, 0], [34.782879, 45.904975, 0], [34.752716, 45.910231, 0], [34.700883, 45.959179, 0], [34.651415, 45.973908, 0], [34.556042, 45.988691, 0], [34.478552, 45.946947, 0], [34.436726, 45.968164, 0], [34.382464, 46.034692, 0], [34.227754, 46.060816, 0], [34.160772, 46.08043, 0], [34.122582, 46.108122, 0], [34.038334, 46.116935, 0], [33.82395, 46.187069, 0], [33.740532, 46.185128, 0], [33.714554, 46.196894, 0], [33.6897, 46.204334, 0], [33.60668, 46.146878, 0], [33.53098, 46.110104, 0], [33.572161, 46.073788, 0], [33.4967, 46.070285, 0], [33.525631, 46.026754, 0], [33.429206, 46.02544, 0], [33.282369, 46.072312, 0], [33.167937, 46.119522, 0], [32.936504, 46.101603, 0], [32.710194, 46.102812, 0], [32.543106, 46.061692, 0], [32.21952, 46.127961, 0], [32.236672, 46.150133, 0], [32.227941, 46.168347, 0], [32.239879, 46.178515, 0], [32.221811, 46.18771, 0], [32.208105, 46.186799, 0], [32.206132, 46.17218, 0], [32.187024, 46.175666, 0], [32.165965, 46.196893, 0], [32.121152, 46.204392, 0], [32.087828, 46.221461, 0], [32.077753, 46.23892, 0], [32.051418, 46.249785, 0], [32.028544, 46.245596, 0], [31.969513, 46.257208, 0], [31.955598, 46.265896, 0], [31.943744, 46.285559, 0], [31.936821, 46.292142, 0], [31.90449, 46.297439, 0], [31.895068, 46.280744, 0], [31.88329, 46.273416, 0], [31.874003, 46.265257, 0], [31.870833, 46.265774, 0], [31.861222, 46.272143, 0], [31.85074, 46.268254, 0], [31.847699, 46.267922, 0], [31.835193, 46.272828, 0], [31.833144, 46.269792, 0], [31.834696, 46.266138, 0], [31.818306, 46.264311, 0], [31.813243, 46.264744, 0], [31.81436, 46.269448, 0], [31.809726, 46.272094, 0], [31.791704, 46.273888, 0], [31.784516, 46.268863, 0], [31.784409, 46.265084, 0], [31.779604, 46.264467, 0], [31.777198, 46.268128, 0], [31.783289, 46.27251, 0], [31.78213, 46.276838, 0], [31.775112, 46.282265, 0], [31.775546, 46.285461, 0], [31.771214, 46.288838, 0], [31.774508, 46.293923, 0], [31.768018, 46.296516, 0], [31.758093, 46.29484, 0], [31.74774, 46.298139, 0], [31.745591, 46.306021, 0], [31.77254, 46.327144, 0], [31.82345, 46.337102, 0], [31.868277, 46.334355, 0], [31.969771, 46.34836, 0], [32.009051, 46.364114, 0], [32.03557, 46.416563, 0], [32.02904, 46.43754, 0], [32.002245, 46.453429, 0], [31.974846, 46.439202, 0], [31.952825, 46.437454, 0], [31.89212, 46.4568, 0], [31.79702, 46.47811, 0], [31.770906, 46.48455, 0], [31.742041, 46.485309, 0], [31.716455, 46.478649, 0], [31.704266, 46.466548, 0], [31.696919, 46.457483, 0], [31.697126, 46.447235, 0], [31.706978, 46.445426, 0], [31.720266, 46.433326, 0], [31.737668, 46.426193, 0], [31.789249, 46.37338, 0], [31.77384, 46.358574, 0], [31.74607, 46.376456, 0], [31.726321, 46.408644, 0], [31.694302, 46.440308, 0], [31.656752, 46.468887, 0], [31.614247, 46.501917, 0], [31.546952, 46.538703, 0], [31.521622, 46.561578, 0], [31.511298, 46.576661, 0], [31.513418, 46.5808, 0], [31.53052, 46.557603, 0], [31.554085, 46.545436, 0], [31.581674, 46.537219, 0], [31.6315, 46.540489, 0], [31.662858, 46.536376, 0], [31.697653, 46.545005, 0], [31.756923, 46.547926, 0], [31.807073, 46.529435, 0], [31.864916, 46.517593, 0], [31.881564, 46.518269, 0], [31.879015, 46.535466, 0], [31.966538, 46.508246, 0], [31.994131, 46.492817, 0], [32.043994, 46.49151, 0], [32.116646, 46.517163, 0], [32.148695, 46.514583, 0], [32.194594, 46.488291, 0], [32.257646, 46.479295, 0], [32.302098, 46.46777, 0], [32.343922, 46.46494, 0], [32.417843, 46.485009, 0], [32.428261, 46.485359, 0], [32.431678, 46.489158, 0], [32.432691, 46.49473, 0], [32.437723, 46.503333, 0], [32.448324, 46.50284, 0], [32.457069, 46.503782, 0], [32.464784, 46.508031, 0], [32.489131, 46.527354, 0], [32.500267, 46.533416, 0], [32.505697, 46.537934, 0], [32.508992, 46.539985, 0], [32.514587, 46.540981, 0], [32.52069, 46.540327, 0], [32.531857, 46.536839, 0], [32.537548, 46.538034, 0], [32.540759, 46.542659, 0], [32.548348, 46.5469, 0], [32.552862, 46.555941, 0], [32.560466, 46.559581, 0], [32.568008, 46.564889, 0], [32.573492, 46.571141, 0], [32.5831324, 46.5818221, 0], [32.5989572, 46.5824178, 0], [32.6145749, 46.596022, 0], [32.6187483, 46.6047686, 0], [32.6299648, 46.6197291, 0], [32.6548983, 46.6383206, 0], [32.6746889, 46.6508646, 0], [32.7080447, 46.6534849, 0], [32.718232, 46.666414, 0], [32.737144, 46.665086, 0], [32.758391, 46.665274, 0], [32.772008, 46.666942, 0], [32.782818, 46.668969, 0], [32.799531, 46.67482, 0], [32.803575, 46.67561, 0], [32.809041, 46.676203, 0], [32.814606, 46.676419, 0], [32.824066, 46.679212, 0], [32.836024, 46.684716, 0], [32.859153, 46.69693, 0], [32.884457, 46.705094, 0], [32.892821, 46.711, 0], [32.89915, 46.712334, 0], [32.905308, 46.711256, 0], [32.923357, 46.718297, 0], [32.928561, 46.718345, 0], [32.933395, 46.717178, 0], [32.942778, 46.713274, 0], [32.954233, 46.711513, 0], [32.979849, 46.71044, 0], [32.991093, 46.714509, 0], [33.011223, 46.717036, 0], [33.019582, 46.717716, 0], [33.031719, 46.720808, 0], [33.043354, 46.723431, 0], [33.046316, 46.726256, 0], [33.048723, 46.726936, 0], [33.054478, 46.727359, 0], [33.062917, 46.731198, 0], [33.063998, 46.731354, 0], [33.066019, 46.731109, 0], [33.070527, 46.732192, 0], [33.071966, 46.733146, 0], [33.076398, 46.73424, 0], [33.079821, 46.735746, 0], [33.080358, 46.736182, 0], [33.084182, 46.737728, 0], [33.086567, 46.737766, 0], [33.087448, 46.737984, 0], [33.088146, 46.738703, 0], [33.087433, 46.739621, 0], [33.088106, 46.74022, 0], [33.090396, 46.741512, 0], [33.09153, 46.741981, 0], [33.092151, 46.742143, 0], [33.093233, 46.74272, 0], [33.097588, 46.743179, 0], [33.09996, 46.74384, 0], [33.101961, 46.745296, 0], [33.103375, 46.745855, 0], [33.104048, 46.747472, 0], [33.1113, 46.749229, 0], [33.112764, 46.749909, 0], [33.113574, 46.749942, 0], [33.117198, 46.75074, 0], [33.118029, 46.751253, 0], [33.133222, 46.756128, 0], [33.137167, 46.755727, 0], [33.140192, 46.756658, 0], [33.138195, 46.759309, 0], [33.152063, 46.763942, 0], [33.172225, 46.765702, 0], [33.1729038, 46.7739742, 0], [33.1931512, 46.7678797, 0], [33.1978713, 46.7674733, 0], [33.2398855, 46.7635114, 0], [33.2543827, 46.752545, 0], [33.286307, 46.749369, 0], [33.31726, 46.752859, 0], [33.337927, 46.757131, 0], [33.354735, 46.762752, 0], [33.358434, 46.769358, 0], [33.371612, 46.7757, 0], [33.370561, 46.776808, 0], [33.371409, 46.777113, 0], [33.372471, 46.776094, 0], [33.373374, 46.776458, 0], [33.377336, 46.776747, 0], [33.390025, 46.783403, 0], [33.402939, 46.773568, 0], [33.470267, 46.820932, 0], [33.620299, 46.829005, 0], [33.634029, 46.866228, 0], [33.633823, 46.899485, 0], [33.656817, 46.904649, 0], [33.678447, 46.900897, 0], [33.68816, 46.92042, 0], [33.695611, 46.955391, 0], [33.697669, 46.995102, 0], [33.72275, 47.017354, 0], [33.802318, 47.058988, 0], [33.840788, 47.098495, 0], [33.849952, 47.137765, 0], [33.863572, 47.145182, 0], [33.903127, 47.159948, 0], [33.929554, 47.179552, 0], [33.944845, 47.197223, 0], [33.967861, 47.211248, 0], [33.982733, 47.230633, 0], [34.019651, 47.358009, 0], [34.042235, 47.4104, 0], [34.046678, 47.417625, 0], [34.064874, 47.424288, 0], [34.118346, 47.420537, 0], [34.145725, 47.424438, 0], [34.19929, 47.412075, 0], [34.26968, 47.43952, 0], [34.296103, 47.428659, 0], [34.334912, 47.446972, 0], [34.338372, 47.467732, 0], [34.372759, 47.510646, 0], [34.386949, 47.513846, 0], [34.43584, 47.496884, 0], [34.500623, 47.499644, 0], [34.533138, 47.53043, 0], [34.54453, 47.532678, 0], [34.586249, 47.52178, 0], [34.59904, 47.534641, 0], [34.618035, 47.544462, 0], [34.628378, 47.545801, 0], [34.642072, 47.54439, 0], [34.680199, 47.510702, 0], [34.689414, 47.494864, 0], [34.708982, 47.490553, 0], [34.719365, 47.492093, 0], [34.749154, 47.492572, 0], [34.792305, 47.467718, 0], [34.825202, 47.464774, 0], [34.859924, 47.451225, 0], [34.874184, 47.449499, 0], [34.874742, 47.437529, 0], [34.863372, 47.420855, 0], [34.883714, 47.406089, 0], [34.935444, 47.391603, 0], [34.968693, 47.389204, 0], [35.028821, 47.418115, 0], [35.046158, 47.437728, 0], [35.062432, 47.448665, 0], [35.070299, 47.450777, 0], [35.119096, 47.451096, 0], [35.148662, 47.445657, 0], [35.202642, 47.444974, 0], [35.264423, 47.473878, 0], [35.280796, 47.472164, 0], [35.273654, 47.493692, 0], [35.274679, 47.496878, 0], [35.280896, 47.503369, 0], [35.28782, 47.507212, 0], [35.299381, 47.510954, 0], [35.313504, 47.512654, 0], [35.322821, 47.515512, 0], [35.330145, 47.520036, 0], [35.334722, 47.525255, 0], [35.34153, 47.536015, 0], [35.348212, 47.537053, 0], [35.353273, 47.536444, 0], [35.358677, 47.536877, 0], [35.365751, 47.53512, 0], [35.37198, 47.532991, 0], [35.380738, 47.535982, 0], [35.394475, 47.537813, 0], [35.42836, 47.531964, 0], [35.440506, 47.531037, 0], [35.448483, 47.530904, 0], [35.455706, 47.528125, 0], [35.453703, 47.518038, 0], [35.45857, 47.511879, 0], [35.50651, 47.513647, 0], [35.539021, 47.519038, 0], [35.55025, 47.523498, 0], [35.568138, 47.525702, 0], [35.592551, 47.519323, 0], [35.61528, 47.502851, 0], [35.654663, 47.500962, 0], [35.665363, 47.503572, 0], [35.682358, 47.510877, 0], [35.699524, 47.506819, 0], [35.711504, 47.505512, 0], [35.726994, 47.499657, 0], [35.737036, 47.491074, 0], [35.789281, 47.490974, 0], [35.796518, 47.482161, 0], [35.807701, 47.482511, 0], [35.811821, 47.497588, 0], [35.828028, 47.492733, 0], [35.829689, 47.489581, 0], [35.837272, 47.492055, 0], [35.841881, 47.496422, 0], [35.84925, 47.496112, 0], [35.851167, 47.498208, 0], [35.871024, 47.496852, 0], [35.873586, 47.498832, 0], [35.949436, 47.490073, 0], [35.950263, 47.501073, 0], [35.980884, 47.513486, 0], [36.013919, 47.51033, 0], [36.020784, 47.515904, 0], [36.031469, 47.5271, 0], [36.041383, 47.536092, 0], [36.060784, 47.537093, 0], [36.08291, 47.551831, 0], [36.087362, 47.573854, 0], [36.105724, 47.578503, 0], [36.116706, 47.57794, 0], [36.128116, 47.574827, 0], [36.133198, 47.575124, 0], [36.186966, 47.580843, 0], [36.209501, 47.582362, 0], [36.212618, 47.586455, 0], [36.2416593, 47.5936094, 0], [36.2425511, 47.5954135, 0], [36.2565186, 47.5942311, 0], [36.278349, 47.5976603, 0], [36.290478, 47.593508, 0], [36.338205, 47.618398, 0], [36.3408192, 47.6266576, 0], [36.3622553, 47.6332743, 0], [36.368328, 47.63156, 0], [36.44484, 47.65024, 0], [36.492896, 47.659307, 0], [36.521186, 47.668959, 0], [36.538214, 47.668917, 0], [36.555255, 47.673036, 0], [36.555749, 47.70034, 0], [36.576932, 47.721469, 0], [36.606534, 47.773853, 0], [36.619796, 47.776786, 0], [36.623424, 47.783724, 0], [36.627137, 47.786785, 0], [36.660036, 47.784179, 0], [36.667253, 47.79318, 0], [36.662007, 47.814298, 0], [36.673928, 47.818355, 0], [36.678371, 47.820935, 0], [36.689319, 47.814797, 0], [36.716368, 47.809896, 0], [36.78729, 47.818622, 0], [36.787848, 47.821194, 0], [36.794414, 47.821691, 0], [36.8017961, 47.8222529, 0], [36.8034053, 47.8262153, 0], [36.8045372, 47.8266728, 0], [36.8082442, 47.8264243, 0], [36.8088825, 47.8246054, 0], [36.8114889, 47.8242791, 0], [36.8137091, 47.8254222, 0], [36.8161324, 47.8245388, 0], [36.8152283, 47.8221094, 0], [36.820249, 47.821677, 0], [36.836085, 47.815279, 0], [36.873556, 47.805457, 0], [36.887987, 47.795349, 0], [36.903955, 47.786825, 0], [36.92952, 47.776347, 0], [36.964522, 47.763541, 0], [37.024232, 47.744782, 0], [37.053542, 47.743666, 0], [37.078458, 47.74209, 0], [37.104062, 47.742355, 0], [37.128682, 47.744562, 0], [37.1756213, 47.7360176, 0], [37.1805106, 47.7413709, 0], [37.1913676, 47.751717, 0], [37.1975069, 47.7539109, 0], [37.2012127, 47.764636, 0], [37.221064, 47.761376, 0], [37.235638, 47.758295, 0], [37.240688, 47.757762, 0], [37.247247, 47.757524, 0], [37.247798, 47.759248, 0], [37.25603, 47.758367, 0], [37.259842, 47.766604, 0], [37.261479, 47.768446, 0], [37.266889, 47.770806, 0], [37.270313, 47.771878, 0], [37.27291, 47.771786, 0], [37.287624, 47.769207, 0], [37.301682, 47.767199, 0], [37.304166, 47.774218, 0], [37.306695, 47.773804, 0], [37.306521, 47.766237, 0], [37.315307, 47.765534, 0], [37.31824, 47.771455, 0], [37.321037, 47.771242, 0], [37.319714, 47.763933, 0], [37.334634, 47.761552, 0], [37.332367, 47.756142, 0], [37.330804, 47.751676, 0], [37.33191, 47.749096, 0], [37.346534, 47.747352, 0], [37.354417, 47.744579, 0], [37.3569, 47.744232, 0], [37.362096, 47.745791, 0], [37.377492, 47.748532, 0], [37.402457, 47.756012, 0], [37.414462, 47.767009, 0], [37.431607, 47.77612, 0], [37.42891, 47.79973, 0], [37.447845, 47.800852, 0], [37.456654, 47.810928, 0], [37.467009, 47.817087, 0], [37.486523, 47.817757, 0], [37.49231, 47.822527, 0], [37.512475, 47.823969, 0], [37.532993, 47.843617, 0], [37.528086, 47.855401, 0], [37.5288134, 47.8755455, 0], [37.5378462, 47.8756592, 0], [37.5366987, 47.8934446, 0], [37.5278247, 47.8939639, 0], [37.520227, 47.9027966, 0], [37.505149, 47.907671, 0], [37.492349, 47.913117, 0], [37.494155, 47.925428, 0], [37.487553, 47.92725, 0], [37.489902, 47.93092, 0], [37.490647, 47.932657, 0], [37.490063, 47.934855, 0], [37.489892, 47.937089, 0], [37.493046, 47.938956, 0], [37.495685, 47.939328, 0], [37.500394, 47.937743, 0], [37.506499, 47.945348, 0], [37.503105, 47.947304, 0], [37.503123, 47.95199, 0], [37.497951, 47.953732, 0], [37.498283, 47.954876, 0], [37.496512, 47.955761, 0], [37.492733, 47.958928, 0], [37.491783, 47.960839, 0], [37.493518, 47.962959, 0], [37.512874, 47.967972, 0], [37.532003, 47.964588, 0], [37.525158, 47.957202, 0], [37.521854, 47.94582, 0], [37.52859, 47.941498, 0], [37.542839, 47.932477, 0], [37.539407, 47.924236, 0], [37.535029, 47.917986, 0], [37.5686, 47.907768, 0], [37.575907, 47.907733, 0], [37.644034, 47.886626, 0], [37.634262, 47.838423, 0], [37.634549, 47.802538, 0], [37.623169, 47.77311, 0], [37.637589, 47.751994, 0], [37.67268, 47.724717, 0], [37.764495, 47.684702, 0], [37.803977, 47.660196, 0], [37.801917, 47.642388, 0], [37.768615, 47.635448, 0], [37.782348, 47.585916, 0], [37.892555, 47.469773, 0], [37.878478, 47.441684, 0], [37.863715, 47.426588, 0], [37.855819, 47.403124, 0], [37.856849, 47.392898, 0], [37.850326, 47.384298, 0], [37.83831, 47.378022, 0], [37.841643, 47.369022, 0], [37.851599, 47.365534, 0], [37.841743, 47.358489, 0], [37.837623, 47.352442, 0], [37.848609, 47.350116, 0], [37.859152, 47.354371, 0], [37.861212, 47.347858, 0], [37.856849, 47.343603, 0], [37.844489, 47.341974, 0], [37.829283, 47.342507, 0], [37.827323, 47.328479, 0], [37.824577, 47.321498, 0], [37.831786, 47.314981, 0], [37.834876, 47.30823, 0], [37.827666, 47.302643, 0], [37.833846, 47.285412, 0], [37.833503, 47.249301, 0], [37.851356, 47.198938, 0], [37.849982, 47.174205, 0], [37.818054, 47.119099, 0], [37.829283, 47.112742, 0], [37.83831, 47.099704, 0], [37.821988, 47.090891, 0], [37.794084, 47.083778, 0], [37.774394, 47.08755, 0], [37.713879, 47.079833, 0], [37.685885, 47.080496, 0], [37.684032, 47.076677, 0], [37.675811, 47.077887, 0], [37.627377, 47.094101, 0], [37.620462, 47.086573, 0], [37.587888, 47.077264, 0], [37.526487, 47.069784, 0], [37.526304, 47.049534, 0], [37.321464, 46.869206, 0], [37.287285, 46.863351, 0], [37.28057, 46.87369, 0], [37.318919, 46.896298, 0], [37.297211, 46.927326, 0], [37.238048, 46.939818, 0], [37.03686, 46.865458, 0], [36.993079, 46.862459, 0], [36.901954, 46.80879, 0], [36.86852, 46.765691, 0], [36.838053, 46.705761, 0], [36.804987, 46.659152, 0], [36.758938, 46.621721, 0], [36.742359, 46.637361, 0], [36.761015, 46.665809, 0], [36.778344, 46.66365, 0], [36.790696, 46.6748, 0], [36.801265, 46.727754, 0], [36.705568, 46.777622, 0], [36.587104, 46.764662, 0], [36.376849, 46.705504, 0], [36.317097, 46.650145, 0], [36.184064, 46.49803, 0], [36.116734, 46.487199, 0], [36.091121, 46.492429, 0], [36.147262, 46.508948, 0], [36.151634, 46.546818, 0], [36.166514, 46.527678, 0], [36.19085, 46.534676, 0], [36.259896, 46.618621, 0], [36.229044, 46.650506, 0], [36.189885, 46.667031, 0], [36.117093, 46.651425, 0], [35.936423, 46.658595, 0], [35.736003, 46.583981, 0], [35.604353, 46.480435, 0], [35.457829, 46.441232, 0], [35.360236, 46.354664, 0], [35.275482, 46.255611, 0], [35.185884, 46.146917, 0], [35.151803, 46.121658, 0], [35.070883, 46.095787, 0], [34.973381, 46.072105, 0], [34.987175, 46.105276, 0], [35.025676, 46.127811, 0], [35.029004, 46.14808, 0], [35.133057, 46.163431, 0], [35.209023, 46.190372, 0], [35.221068, 46.226899, 0], [35.252517, 46.250571, 0]]]}}, {"type": "Feature", "properties": {"name": "\u041e\u043a\u0443\u043f\u043e\u0432\u0430\u043d\u043e /// Occupied", "date": "2023-04-30"}, "geometry": {"type": "Polygon", "coordinates": [[[38.1564927, 48.732688, 0], [38.1825277, 48.72715, 0], [38.1886187, 48.729925, 0], [38.1939797, 48.733995, 0], [38.1947987, 48.737626, 0], [38.1945587, 48.745142, 0], [38.1937517, 48.7517, 0], [38.1917827, 48.758173, 0], [38.1984447, 48.760124, 0], [38.2053277, 48.759785, 0], [38.2167017, 48.761348, 0], [38.2186277, 48.763475, 0], [38.2171737, 48.770899, 0], [38.2181737, 48.771966, 0], [38.2281177, 48.770858, 0], [38.2359967, 48.771899, 0], [38.2432187, 48.780996, 0], [38.2524097, 48.784073, 0], [38.2554217, 48.789865, 0], [38.2559667, 48.794031, 0], [38.2611467, 48.800798, 0], [38.2661037, 48.805099, 0], [38.2622633, 48.813639, 0], [38.2572937, 48.818866, 0], [38.2453417, 48.831416, 0], [38.2449017, 48.856619, 0], [38.2425727, 48.865034, 0], [38.2387047, 48.865747, 0], [38.2325317, 48.865656, 0], [38.2285557, 48.868924, 0], [38.2350567, 48.877435, 0], [38.2338287, 48.880076, 0], [38.2338967, 48.882038, 0], [38.2446267, 48.879576, 0], [38.2450997, 48.880601, 0], [38.2488557, 48.880268, 0], [38.2502187, 48.883995, 0], [38.2527037, 48.885633, 0], [38.2536887, 48.888822, 0], [38.2576577, 48.889655, 0], [38.2607157, 48.888971, 0], [38.2679087, 48.889447, 0], [38.2679447, 48.890249, 0], [38.2727687, 48.891694, 0], [38.2745887, 48.895171, 0], [38.2675197, 48.903563, 0], [38.2703651, 48.9074705, 0], [38.2711357, 48.910911, 0], [38.2778727, 48.915282, 0], [38.2746077, 48.920525, 0], [38.2974387, 48.927344, 0], [38.2844547, 48.936408, 0], [38.2686627, 48.942975, 0], [38.2612637, 48.943501, 0], [38.2469357, 48.94647, 0], [38.2381007, 48.946707, 0], [38.2346607, 48.944666, 0], [38.2342377, 48.946566, 0], [38.2338837, 48.95314, 0], [38.2370587, 48.956521, 0], [38.2448727, 48.956245, 0], [38.2588687, 48.969268, 0], [38.2410727, 49.005535, 0], [38.2627087, 49.024532, 0], [38.2845387, 49.026568, 0], [38.2998017, 49.024992, 0], [38.3699907, 48.981882, 0], [38.4023687, 48.955772, 0], [38.4134907, 48.940084, 0], [38.4749167, 48.903594, 0], [38.4953037, 48.870737, 0], [38.5597007, 48.830068, 0], [38.7055667, 48.775461, 0], [38.6917267, 48.729363, 0], [38.6745597, 48.729363, 0], [38.6784227, 48.723701, 0], [38.6301777, 48.721172, 0], [38.5832287, 48.71987, 0], [38.5784297, 48.70943, 0], [38.5777427, 48.696742, 0], [38.5722417, 48.689056, 0], [38.5594567, 48.686695, 0], [38.5489887, 48.675294, 0], [38.5394617, 48.673509, 0], [38.5272947, 48.674642, 0], [38.5161587, 48.670562, 0], [38.5152577, 48.666367, 0], [38.4967187, 48.663192, 0], [38.4802387, 48.659111, 0], [38.4644387, 48.656408, 0], [38.4452127, 48.655048, 0], [38.4314867, 48.650492, 0], [38.4198137, 48.645048, 0], [38.4143127, 48.638262, 0], [38.4088197, 48.62964, 0], [38.4046997, 48.616931, 0], [38.4048147, 48.609098, 0], [38.4060807, 48.60193, 0], [38.4026477, 48.59194, 0], [38.4026477, 48.547867, 0], [38.4143137, 48.520605, 0], [38.4115737, 48.51058, 0], [38.4053877, 48.473366, 0], [38.3930347, 48.436606, 0], [38.3892577, 48.432278, 0], [38.3909747, 48.415874, 0], [38.3679247, 48.402171, 0], [38.3543257, 48.390459, 0], [38.3436747, 48.38455, 0], [38.3217647, 48.371053, 0], [38.2907167, 48.361631, 0], [38.2736997, 48.359192, 0], [38.2591307, 48.359806, 0], [38.2276947, 48.367176, 0], [38.2149917, 48.369, 0], [38.2074387, 48.371509, 0], [38.1847787, 48.37493, 0], [38.1501037, 48.385419, 0], [38.1544557, 48.395536, 0], [38.1631047, 48.402117, 0], [38.1485587, 48.414482, 0], [38.1352547, 48.419039, 0], [38.1174877, 48.420805, 0], [38.1137167, 48.408013, 0], [38.0421337, 48.409086, 0], [38.0048127, 48.393954, 0], [37.9786337, 48.391275, 0], [37.9749697, 48.381115, 0], [37.9701627, 48.380317, 0], [37.9470507, 48.375156, 0], [37.9586307, 48.394609, 0], [37.9646327, 48.394093, 0], [37.9646367, 48.395359, 0], [37.9654247, 48.396282, 0], [37.9630707, 48.400663, 0], [37.9656947, 48.40661, 0], [37.9666587, 48.409728, 0], [37.9653397, 48.412754, 0], [37.9609307, 48.416463, 0], [37.9529587, 48.416298, 0], [37.9526267, 48.417956, 0], [37.9597717, 48.419022, 0], [37.9593647, 48.427208, 0], [37.9554697, 48.42826, 0], [37.9395987, 48.449054, 0], [37.9395797, 48.452774, 0], [37.9474557, 48.456867, 0], [37.9414277, 48.461331, 0], [37.9413027, 48.464138, 0], [37.9382957, 48.467402, 0], [37.9318067, 48.471159, 0], [37.9266167, 48.482366, 0], [37.9211547, 48.486136, 0], [37.9191327, 48.483193, 0], [37.9174917, 48.483681, 0], [37.9195277, 48.486476, 0], [37.9136677, 48.486598, 0], [37.9130187, 48.488008, 0], [37.9189297, 48.487927, 0], [37.9115727, 48.493451, 0], [37.9082687, 48.490716, 0], [37.9066857, 48.491165, 0], [37.9095277, 48.495222, 0], [37.9114997, 48.499629, 0], [37.9089227, 48.504036, 0], [37.9049727, 48.504624, 0], [37.9034257, 48.506464, 0], [37.9052707, 48.507716, 0], [37.8966007, 48.516218, 0], [37.8905497, 48.515716, 0], [37.8891347, 48.516691, 0], [37.8948857, 48.51796, 0], [37.8935097, 48.519827, 0], [37.8918147, 48.526456, 0], [37.8881887, 48.527117, 0], [37.8826007, 48.529812, 0], [37.8799307, 48.536648, 0], [37.8819626, 48.5370062, 0], [37.8818147, 48.538003, 0], [37.8805947, 48.543432, 0], [37.8855847, 48.553194, 0], [37.9020267, 48.552245, 0], [37.9206417, 48.556116, 0], [37.9302397, 48.547724, 0], [37.9486497, 48.552135, 0], [37.9608187, 48.554844, 0], [37.9674747, 48.560064, 0], [37.9668947, 48.574259, 0], [37.9671907, 48.575286, 0], [37.9691847, 48.576243, 0], [37.9687427, 48.576785, 0], [37.9699427, 48.577166, 0], [37.9699547, 48.577444, 0], [37.9746912, 48.5791667, 0], [37.9729678, 48.5814896, 0], [37.9716953, 48.5826261, 0], [37.9706661, 48.5833381, 0], [37.9718367, 48.5843669, 0], [37.9746382, 48.5846859, 0], [37.9757932, 48.5854685, 0], [37.9752044, 48.5867164, 0], [37.9731382, 48.5861364, 0], [37.9736222, 48.5874098, 0], [37.9752163, 48.5878283, 0], [37.9752718, 48.5892368, 0], [37.9763425, 48.5914813, 0], [37.9761777, 48.5925402, 0], [37.9791906, 48.5936232, 0], [37.9791306, 48.5944059, 0], [37.9781694, 48.5947061, 0], [37.9709392, 48.5950308, 0], [37.9689436, 48.5957687, 0], [37.9664158, 48.5989071, 0], [37.9682555, 48.5999413, 0], [37.9683062, 48.6025475, 0], [37.9620397, 48.605698, 0], [37.9586857, 48.606595, 0], [37.9578537, 48.606675, 0], [37.9576227, 48.60718, 0], [37.9581487, 48.608588, 0], [37.9571237, 48.60925, 0], [37.9531767, 48.608294, 0], [37.9434177, 48.612693, 0], [37.9373067, 48.6121759, 0], [37.9330797, 48.610417, 0], [37.9325347, 48.609942, 0], [37.9292777, 48.614666, 0], [37.9259827, 48.617673, 0], [37.9245867, 48.618687, 0], [37.9243927, 48.619899, 0], [37.9265557, 48.621657, 0], [37.9192927, 48.630506, 0], [37.9147977, 48.629894, 0], [37.9134947, 48.631602, 0], [37.9105697, 48.630499, 0], [37.8979447, 48.633764, 0], [37.8915917, 48.641215, 0], [37.8848727, 48.641203, 0], [37.8855477, 48.644855, 0], [37.8887967, 48.647827, 0], [37.8891007, 48.659427, 0], [37.8909427, 48.661603, 0], [37.9029027, 48.66325, 0], [37.9081527, 48.663309, 0], [37.9113017, 48.670368, 0], [37.9104077, 48.672952, 0], [37.9030827, 48.679412, 0], [37.8970337, 48.68259, 0], [37.8920987, 48.683811, 0], [37.8922277, 48.686222, 0], [37.8997417, 48.691907, 0], [37.9003467, 48.694306, 0], [37.9028797, 48.697856, 0], [37.9099687, 48.695831, 0], [37.9160537, 48.697671, 0], [37.9202937, 48.701381, 0], [37.9175137, 48.705908, 0], [37.9233137, 48.70912, 0], [37.9356347, 48.703949, 0], [37.9516147, 48.701931, 0], [37.9632657, 48.703083, 0], [37.9805447, 48.71178, 0], [37.9884387, 48.716876, 0], [37.9910127, 48.725148, 0], [37.9987357, 48.738288, 0], [38.0134247, 48.739464, 0], [38.0146067, 48.743532, 0], [38.0253167, 48.74562, 0], [38.0275647, 48.74731, 0], [38.0284687, 48.749363, 0], [38.0295097, 48.750722, 0], [38.0346697, 48.750284, 0], [38.0422767, 48.747044, 0], [38.0484697, 48.747183, 0], [38.0544907, 48.748679, 0], [38.0560057, 48.751506, 0], [38.0616407, 48.750654, 0], [38.0698537, 48.74803, 0], [38.0758807, 48.743408, 0], [38.0915647, 48.745762, 0], [38.0954847, 48.743846, 0], [38.1119937, 48.742761, 0], [38.1163117, 48.739649, 0], [38.1240707, 48.737717, 0], [38.1299437, 48.734202, 0], [38.1564927, 48.732688, 0]]]}}, {"type": "Feature", "properties": {"name": "\u041e\u043a\u0443\u043f\u043e\u0432\u0430\u043d\u043e /// Occupied", "date": "2023-04-30"}, "geometry": {"type": "Polygon", "coordinates": [[[32.568431, 46.573163, 0], [32.568871, 46.573827, 0], [32.570824, 46.573222, 0], [32.570266, 46.572212, 0], [32.568431, 46.573163, 0]]]}}]}